,PNT_OF_INT,DESCRPTION,SOCIAL_MED,WEBSITE,CATEGORY,LOCATION,X,Y,LONGITUDE,LATITUDE,OBJECTID,RID,geometry
0,21 Points in Equilibrium (Sculpture),"This sculpture is by James Southerland. It is an interpretation of the civic political process. A carefully coneived site sculpture, it extends from outdoors into the lobby of the Scarborough Civic Centre. Formed of 21 pieces of polished, welded aluminum",,,Public Art,150 Borough Dr,324341.227,4847914.922,-79.257066555,43.772936248,75154.0,1,POINT (-79.25706655499999 43.772936248)
1,Crucified Again (Sculpture),"Crucified Again shows the body of a tortured man crucified on a sickle and a hammer, a symbol of the soviet oppression. This monument was unveiled on Czechoslovak Day on July 2nd, 1989. It is located at Masaryk Institute, a not-for-profit charitable orga",,,Public Art,450 Scarborough Golf Club Road,327641.001,4845799.116,-79.216170331,43.7538063535,75155.0,2,POINT (-79.2161703309953 43.7538063534814)
2,A Tall Couple (Sculpture),"Louis Archambault (1915-2003) created A Tall Couple, the bronze sculpture nestled in the perennial gardens by UTSC's H-wing patio. Commissioned for Expo 67 in Montreal, the work was later donated to the university by the House of Seagram, a sponsor of th",,,Public Art,"-79.187369, 43.783078",329947.86,4849060.368,-79.187369,43.783078,102997.0,3,POINT (-79.187369 43.783078)
3,Warden Underpass Mural (Mural),"The Warden Underpass Mural provides a visual history of Scarborough. Painted in 2012 and 2013, this mural fills the underpass on Warden Avenue south of Danforth Road. The west wall shows the iconic Bluffs and Elizabeth Simcoe, the woman who gave Scarboro",,,Public Art,"-79.273286, 43.693461",323059.616,4839081.887,-79.273286,43.693461,102998.0,4,POINT (-79.273286 43.693461)
4,Sustenance (Mural),"Sustenance, also known as the ""Western Gateway"" mural is one of two gateway murals, created as Signature Projects of the Cultural Hotspot. The mural, created by artist Bill Wrigley focuses on the community's relationship with the bluffs overlooking Lake",,,Public Art,"-79.255266, 43.700826",324509.747,4839904.258,-79.255266,43.700826,102999.0,5,POINT (-79.25526600000001 43.700826)
5,Eruption (Sculpture),"This sculpture is by Janis Karlous. It is not the heavenly bodies, but powerful earthly forces that are at work. This sculpture is 3.2m high, 4.1m x4.3m at the base, four wedge-shaped stones rise between, and simultaneously also force apart, four massive",,,Public Art,"-79.256558, 43.773699",324381.921,4847999.778,-79.256558,43.773699,103000.0,6,POINT (-79.256558 43.773699)
6,Procession (Sculpture),"This sculpture is by Peter Roller, an artist from Slovakia. Three rectangular figures, symbols of humankind, stand in a row. Each bends slightly forward, as if moving forward in solemn stately fashion. Placed on a long base that is less than a metre high",,,Public Art,"-79.25685, 43.773829",324358.372,4848014.152,-79.25685,43.773829,103001.0,7,POINT (-79.25685 43.773829)
7,"""The Owl"" Mural (Mural)","Painted in the early seventies on the wall of MacMillan Auto Sales, this mural quickly became a favourite icon of the community and the Crossroads BIA. The building now houses Selected Fine Cars, but the owl remains and continues to be a much loved featu",,,Public Art,3206 Danforth Ave,322253.24,4838985.637,-79.2832958283,43.6926225366,75142.0,8,POINT (-79.28329582833911 43.6926225366017)
8,Giant Birch Tree (Mural),This Mural Routes project was painted and installed in 2012. This is one of the murals created for the Birchcliff Community Mural Project. The initiative for the project came from members of the community who wanted to bring a sense of pride to the Birch,,,Public Art,1445 Kingston Road,323273.62,4838437.409,-79.2706559604,43.6876632719,75144.0,9,POINT (-79.2706559604036 43.6876632719433)
9,Birches and Bluffs (Mural),This Mural Routes project was painted in 2014. This is one of the murals created for the Birchcliff Community Mural Project. The initiative for the project came from members of the community who wanted to bring a sense of pride to the Birch Cliff neighbo,,,Public Art,1674 Kingston Road,323784.419,4838915.71,-79.2643033626,43.6919555022,75145.0,10,POINT (-79.2643033626094 43.6919555022455)
10,Birch Forest (Mural),This Mural Routes project was painted in 2013. This is one of the murals created for the Birchcliff Community Mural Project. The initiative for the project came from members of the community who wanted to bring a sense of pride to the Birch Cliff neighbo,,,Public Art,1650 Kingston Road,323682.151,4838920.058,-79.2655718249,43.691997318,75146.0,11,POINT (-79.2655718248791 43.6919973180227)
11,Creekside (Mural),"Creekside, also known as the ""Eastern Gateway- mural is one of the signature projects of Cultural Hotspot -East. The bright and beautiful mural is a permanent piece of public art created to welcome visitors entering south Scarborough from the east. The n",,,Public Art,"-79.171796,43.782407",331201.622,4848990.598,-79.171796,43.782407,103343.0,12,POINT (-79.171796 43.782407)
12,Torso (Sculpture),Torso is a bulging nude cast-concrete female figure by John Ivor Smith. The figure is cut off at the knees and with the barest stumps for arms.,,,Public Art,2075 Lawrence Ave E,321438.32,4844830.524,-79.2932245847,43.745252102,75149.0,13,POINT (-79.2932245847462 43.7452521020038)
13,Bluffs Gallery,"The Bluffs Gallery is an intimate, community space featuring work by local and emerging artists. Located inside the Scarborough Arts building the gallery hosts groupp and solo exhibitions and features a range of fine arts and crafts. The gallery is also",,,Creative,1859 Kingston Road,324227.848,4839300.024,-79.2587886605,43.695403262,75150.0,14,POINT (-79.2587886604676 43.6954032619519)
14,Enrico's Pizza,"Enrico's Pizza is a much loved place in the neighbourhood, known as the place where the pizza tastes ""really home made"".",,http://enricos-pizza.com/,Business,1736 Kingston Road,323924.477,4839044.576,-79.2625614127,43.6931117795,75151.0,15,POINT (-79.26256141267839 43.6931117794859)
15,Arts Beyond the Road (Mural),"The mural was created for May 10, Arts on the Road: The Kingston Road Creative Walk 2014. R.H. King Academy Arts Management students worked together under the direction of artist Lauren Kuzyk to execute her design for a colourful and inclusive representa",,http://schools.tdsb.on.ca/rhking/,Public Art,"-79.23559879999998, 43.7227471",326087.113,4842344.462,-79.2355988,43.7227471,38880.0,16,POINT (-79.23559879999998 43.7227471)
16,Fibonacci Cadenza (Sculpture),The sculpture was created by Uga Drava. Installed in 1994. Material: Canadian Granite.,,,Public Art,"-79.257, 43.771462",324347.056,4847751.162,-79.257,43.771462,38881.0,17,POINT (-79.25700000000001 43.771462)
17,The Hand of God (Sculpture),"The sculpture was created by Carl Milles. It was donated in memory of Albert M. Campbell, the first mayor of Scarborough and Chairman of the Council of Metropolitan Toronto. It was dedicated in 1975. It symbolizes Campbell's philosophy that ""Man can best",,,Public Art,"-79.259,43.77146",324186.043,4847750.481,-79.259,43.77146,38922.0,18,POINT (-79.259 43.77146)
18,Ode to the Sun (Sculpture),The sculpture was created by Rob Schreefel. Installed in 1994. Material: Canadian Granite.,,,Public Art,"-79.258, 43.771462",324266.546,4847750.934,-79.258,43.771462,38883.0,19,POINT (-79.258 43.771462)
19,Lotus Catering & Fine Foods,International Cuisine. Offers take-out options and catering.,,,Business,1960 Lawrence Avenue East,321034.757,4844797.323,-79.2982363212,43.7449621858,38884.0,20,POINT (-79.2982363212486 43.7449621857572)
20,"Everyone has the right to life, liberty and security of person (Mural)","This mural was hosted by Parma Court, created in part of Project:Urban Canvas. The mural artist was from Working Women Community Centre.",,http://www.aito.ca/urbancanvas/mural_3.html,Public Art,30 Parma Crt,320878.491,4841686.897,-79.3002694663,43.7169676188,38885.0,21,POINT (-79.30026946626219 43.7169676187615)
21,Duckworth's Fish & Chips,"Established in 1930, Duckworth's is now a neighbourhood icon. It has two locations, one on Danforth and the other on Kingston Road.",,,Business,2282 Kingston Road,324740.619,4840414.489,-79.252382448,43.705412514,38940.0,22,POINT (-79.25238244800001 43.705412514)
22,Duckworth's Fish & Chips,"Established in 1930, Duckworth's is now a neighbourhood icon. It has two locations, one on Danforth and the other on Kingston Road.",,http://www.lenduckworthsfishandchips.com/,Business,2638 Danforth Avenue,320909.322,4838560.364,-79.2999796867,43.688824526,38941.0,23,POINT (-79.2999796867125 43.688824526032)
23,Ikki Sushi,"Ikki Sushi is a Japanese restaurant that serves a variety of Japanese food such as sushi, bento box, teriyaki, noodles and tempura. Menu is available online.",,http://www.ikkisushi.com/,Business,2328 Kingston Road,324807.576,4840554.214,-79.2515496297,43.7066770129,38942.0,24,POINT (-79.25154962971099 43.7066770129347)
24,King's Garden Sushi and Wok,King's Garden is a Japanese restaurant near the Bluffs that serves Japanese food including sushi.,,,Business,3103 Kingston Road,326565.324,4842838.374,-79.2296469327,43.7271879992,38943.0,25,POINT (-79.22964693265909 43.7271879992277)
25,Coalition Music,"Coalition Music help artists and industry professionals at all levels build sustainable careers within a trusted creative community of incubation, mentorship, education, networking and collaboration.",,http://coalitionent.com/,Creative,1731 Lawrence Avenue East,320235.36,4844476.317,-79.3081709664,43.742089779,75140.0,26,POINT (-79.3081709664163 43.742089779021)
26,Bridging Festival,"Bridging Festival is an annual festival that celebrates community, arts, culture and the environment to further ""bridge"" the different communities of southeast Scarborough, organized by Scarborough Arts.",,,Creative,"-79.20211,43.764853",328768.599,4847031.242,-79.20211,43.764853,37624.0,27,POINT (-79.20211 43.764853)
27,The Bridging Project (Mural),"The Bridging Project transformed an east Toronto six-lane traffic bridge on Lawrence Avenue East into the connector between the two neighbourhoods, bringing arts and environmental activities to the Kingston/Galloway/Orton Park community.",,http://www.muralroutes.com/towns/heritagetrail/youth.htm,Public Art,"-79.20211,43.764853",328768.599,4847031.242,-79.20211,43.764853,37625.0,28,POINT (-79.20211 43.764853)
28,Chesterton Shores Park,Chesterton Shores Park is located east of Port Union Village Common Park and west of the Rouge River on the shores of Lake Ontario. Enjoy a stroll along the waterfront or head west to the playground in Port Union Village Common Park. This area is a popul,,http://www1.toronto.ca/parks/prd/facilities/complex/2209/index.htm,Park,"-79.134593,43.774895",334199.756,4848168.471,-79.134593,43.774895,37626.0,29,POINT (-79.134593 43.774895)
29,Miller Lash House,"The Miller Lash Estate is nestled in the picturesque valley of the village of Highland Creek. Built by Miller Lash in 1914, the large, 17room, 150 foot long stone mansion was hidden away from public view until the 1960's. Miller Lash was a wealthy busine",,http://www.millerlashhouse.ca,Heritage,"-79.185406,43.780004",330107.14,4848719.428,-79.185406,43.780004,37627.0,30,POINT (-79.185406 43.780004)
30,Gallery 1265,"Gallery 1265 is committed to providing dedicated exhibition space and learning opportunities for student artists, curators and arts managers. Admission is free and all are welcome.",https://www.facebook.com/gallery1265,http://www.utsc.utoronto.ca/~gallery1265/,Creative,"-79.187648,43.783388",329925.277,4849094.729,-79.187648,43.783388,37628.0,31,POINT (-79.187648 43.783388)
31,Leigha Lee Browne Theatre,"The Leigha Lee Browne Theatre, named in honour of Leigha Lee Browne, an inspirational drama instructor at UTSC, has been a public performance venue since 1993. From concerts by world-renowned musicians to conversations about the connections between commu",,,Creative,"-79.189579,43.783752",329769.706,4849134.597,-79.189579,43.783752,37629.0,32,POINT (-79.18957899999999 43.783752)
32,"Community Spirit in Early Highland Creek, Winter 1867 (Mural)",This mural recreates a scene showing members of the Highland Creek community working together to build an addition to the Wesley Methodist Chapel in the early winter of 1867. The chapel once stood adjacent to the mural site amongst the tombstones of the,,http://www.muralroutes.com/towns/heritagetrail/heritage.htm,Public Art,"-79.169856,43.784111",331357.022,4849180.525,-79.169856,43.784111,37631.0,33,POINT (-79.169856 43.784111)
33,Art Side Out,"ARTSIDEOUT is a large scale, one-day, multi-disciplinary arts festival that celebrates arts and culture at UTSC in both physical and conceptual spaces. Involving the widest possible range of students from different programs and backgrounds, the event cel",,http://www.artsideout.ca/,Creative,"-79.18745,43.784604",329940.712,4849229.895,-79.18745,43.784604,37632.0,34,POINT (-79.18745 43.784604)
34,Secor Cairn (Memorial),Secor Cairn is the oldest monument in the City of Toronto Public Art collection.,,,Public Art,"-79.2224349975585,43.7547264099121",327135.913,4845900.589,-79.2224349976,43.7547264099,38800.0,35,POINT (-79.22243499755849 43.7547264099121)
35,Community Arts Guild,"The Community Arts Guild invite those who may not normally have the opportunity to participate, connects people, celebrates and discovers the traditions they bring along; and builds community through art-making.",,http://www.jumbliestheatre.org/,Creative,"-79.207706,43.757515",328320.913,4846214.434,-79.207706,43.757515,37614.0,36,POINT (-79.207706 43.757515)
36,McCowan Log House,"This cabin was built about 1830 in the northeast part of Scarborough and was moved to its present site by the Scarborough Historical Society in 1974.From 1848 until his death, it was occupied by William Porteous McCowan (1820-1902) who had come to Canada",,,Heritage,"-79.254642,43.757527",324541.47,4846203.564,-79.254642,43.757527,37615.0,37,POINT (-79.254642 43.757527)
37,Cornell House,"Built in 1858 in Scarborough Village, this was was inhabited for over 80 years by descendants of William Cornell. It remained in the Cornell family until 1944. In 1962, the house was moved to Thomson Memorial Park and furnished in the style of the late 1",,,Heritage,"-79.254768371582,43.7581710815429",324531.084,4846275.088,-79.2547683716,43.7581710815,37617.0,38,POINT (-79.254768371582 43.7581710815429)
38,Thomson Memorial Park,"A 41.8 heactare park at Lawrence Ave East and Brimley Rd follows the West Highland Creek. Many paths through the large wooded ravine of the creek allows visitors to experience nature in the city. The park also has a lighted ball diamond, lighted multi-pu",,http://www1.toronto.ca/parks/prd/facilities/complex/543/,Park,"-79.2549821,43.7592247",324513.531,4846392.089,-79.2549821,43.7592247,37618.0,39,POINT (-79.25498210000001 43.7592247)
39,Tabor Hill Ossuary (Memorial),This ossuary was uncovered when farm lands were developed into residential properties in 1956. This common grave contains the remains of approximately 472 persons.,,,Public Art,"-79.234471,43.759797",326164.885,4846460.753,-79.234471,43.759797,37619.0,40,POINT (-79.234471 43.759797)
40,St. Andrews Presbyterian Church Cemetery,St. Andrews Church and Cemetery area is a beautiful historical area of Scarborough. The church cemetery contains a history of early Scarborough; cemetery sit on land that was once part of the Thomson farm.,,http://www.standrewsscarborough.com/cemetary/,Heritage,"-79.252889,43.760321",324681.708,4846514.39,-79.252889,43.760321,37620.0,41,POINT (-79.252889 43.760321)
41,Centennial Library,"Centennial Library was built in 1896 to mark the 100th anniversary of the settlement  of the Township. In 1955, its members sponsored the institution of a free public library for all Scarborough, which continued to operate the ild library until the build",,,Heritage,"-79.251462, 43.760415",324796.578,4846525.176,-79.251462,43.760415,37884.0,42,POINT (-79.251462 43.760415)
42,St. Andrew's Sexton House,The St. Andrew's Sexton House is part of the St. andrew's Presbyterian Church. The church property forms a unique and valuable historic site within the City of Scarborough.,,,Heritage,"-79.2531433105468,43.7607383728027",324661.094,4846560.697,-79.2531433105,43.7607383728,37622.0,43,POINT (-79.2531433105468 43.7607383728027)
43,Lawrence Avenue Bridge,"Lawrence Avenue Bridge is a bridge over West Don River. Over the years, Scarborough Arts organized festivals celebrate community under the bridge. Mural Routes also worked with local youths to paint mural on the sides of the bridge.",,,Community,"-79.20211,43.764853",328768.599,4847031.242,-79.20211,43.764853,37623.0,44,POINT (-79.20211 43.764853)
44,A Sense of Place (Mural),"This mural was done by artist Frank Perna in 1997, assisted by Scott Clatney. This mural explores the concept of a sense of place for community groups in the natural world accessed through technology. The subject matter of the 6 main surfaces are from le",,,Public Art,"-79.263921,43.73217",323802.27,4843384.401,-79.263921,43.73217,37591.0,45,POINT (-79.263921 43.73217)
45,UDHR Article #27 (Mural),"Created in Summer 2008 by local youth, this mural symbolizes the evolution of community as it celebrates strength and diversity through creative participation.",,http://www.muralroutes.com/towns/heritagetrail/youth.htm,Public Art,"-79.216446,43.739794",327623.83,4844243.272,-79.216446,43.739794,37595.0,46,POINT (-79.216446 43.739794)
46,Russel Cornell Farm,"It is also known as Campbell Property. A historic Scarborough farm house, built in 1836 was owned by William Cornell, who settled here from Rhode Island in 1799. He helped construct the Kings Road which is present day Kingston Road, Highway 2.  Many of h",,,Heritage,"-79.2145690917968,43.7413215637207",327774.429,4844413.495,-79.2145690918,43.7413215637,37597.0,47,POINT (-79.2145690917968 43.7413215637207)
47,Shahab Plaza (Mural),"Created by artist Yannick Pickard, this mural was conceived as the companion mural to Sail On and Fair Well (2009). It was designed for the upper level of a neighbourhood plaza, and painted during the summer of 2010. The mural depicts aspects of the land",,http://www.muralroutes.com/towns/heritagetrail/fm_29.htm,Public Art,"-79.260737,43.7418",324055.684,4844454.944,-79.260737,43.7418,37598.0,48,POINT (-79.26073700000001 43.7418)
48,Diversity (Mural),"Like the branches of a tree, mingling with the roots of a mushroom, touched by the butterfly?s antenna and caressed by nature?s wind. Different elements and organisms co-existing to ensure life?s progression ? we too exist in this organic beauty.",,http://muralroutes.com/towns/heritagetrail/youth.htm,Public Art,"-79.220225,43.742515",327318.432,4844544.545,-79.220225,43.742515,37600.0,49,POINT (-79.220225 43.742515)
49,Osterhaut Cabin,The oldest building in Scarborough. Built in 1795 by Augustus Jones who was commissioned by John Graves Simcoe - first Lieutenant - Governor of Upper Canada - to survey Scarborough. William Osterhout later received the first crown grant of the land from,,,Heritage,"-79.193184,43.745173",329495.337,4844847.496,-79.193184,43.745173,37604.0,50,POINT (-79.193184 43.745173)
50,Guild Park and Gardens,"Toronto's Guild Park includes 88 acres of forest, shoreline, bluffs and formal gardens, plus a collection of architectural elements and sculptures preserved from city's downtown. These features tell a unique tale about Toronto and the people whose dreams",,http://guildpark.ca/,Park,"-79.191937,43.747874",329594.658,4845147.93,-79.191937,43.747874,37607.0,51,POINT (-79.191937 43.747874)
51,Guild Park & Gardens,"Guild Park was site of the innovative Guild of All Arts, a community association focused on improving, enhancing and pretoecing Guild Park and Gardens.",https://www.facebook.com/GuildPark,http://www.guildpark.ca,Creative,"-79.192632,43.748204",329538.55,4845184.385,-79.192632,43.748204,37608.0,52,POINT (-79.192632 43.748204)
52,Dawes Crossing by Noel Harding (Sculpture),"A covered bridge gathering natural resources (wind, sun, water) while contextualizing public usage and amenity. The structure silhouette reminds history as agriculture while the oak beam structure is iconic to our resource heritage. A signature toward co",https://www.facebook.com/dawescrossing,http://www.dawescrossing.ca/,Public Art,"-79.2951,43.706197",321297.726,4840492.284,-79.2951,43.706197,37582.0,53,POINT (-79.29510000000001 43.706197)
53,Bluffer's Park,"Bluffs stretch for about 15 km along the Lake Ontario shore, from the Eastern Beaches of Toronto in the west, to East Point Park in the east. The Scarborough Bluffs are a significant geological feature resulting from the accumulation of sedimentary depos",,https://www1.toronto.ca/wps/portal/contentonly?vgnextoid=0519dada600f0410VgnVCM10000071d60f89RCRD,Park,"-79.236411,43.70626",326027.484,4840512.608,-79.236411,43.70626,37583.0,54,POINT (-79.236411 43.70626)
54,Cliffside Golf Course (Mural),"The Cliffside Golf Course was located south of Kingston Road and West of Midland Avenue with a beautiful view of Lake Ontario. Many a golf ball was lost over the Bluffs. Started in 1931 by George McCordick, when he converted an old farmhouse into a clubh",,http://www.muralroutes.com/towns/heritagetrail/heritage.htm,Public Art,"-79.2486190795898,43.7082786560058",325042.952,4840733.82,-79.2486190796,43.708278656,37586.0,55,POINT (-79.2486190795898 43.7082786560058)
55,Midland Danforth Book Mobile Stop (TPL),"Mondays, weekly, 5:30-7pm. The Toronto Public Library operates two bookmobiles which serve areas that are not close to library branches.The bookmobile carries a complete range of items similar to what is offered in library branches.",,http://www.torontopubliclibrary.ca/bookmobiles/,Library,"-79.253095,43.725452",324676.57,4842640.586,-79.253095,43.725452,37587.0,56,POINT (-79.253095 43.725452)
56,Fool's Paradise,"Fool's Paradise is a house of Canadian artist Doris McCarthy. This property sits on the ecologically sensitive, geologically significant Scarborough Bluffs.  Doris McCarthy purchased the easternmost part of Springbank, which her morhter called 'Fool's Pa",,,Heritage,"-79.21696, 43.72655",327587.43,4842771.811,-79.21696,43.72655,37883.0,57,POINT (-79.21696 43.72655)
57,Passage (Sculpture),"Passage is a sculpture which honours Doris McCarthy and the Scarborough Bluffs, the second in a series of sculptures by Marlene Hilton Moore to mark people in place across Canada.Ã¿ Doris McCarthy is singular in her achievements as an artist and her passi",,,Public Art,"-79.213701,43.727177",327849.754,4842842.362,-79.213701,43.727177,37590.0,58,POINT (-79.213701 43.727177)
58,Port Union CRC,"Port Union is a small but vibrant recreation centre offering a wide range of activities for all, from tots to older adults. The Recreation Centre boasts a well equipped fitness centre, library, skateboard park, gymnatorium/hall and older adults lounge to",,http://www1.toronto.ca/parks/prd/facilities/complex/883/,Community,5450 Lawrence Ave E,333738.755,4848696.362,-79.140291245,43.779664586,37897.0,59,POINT (-79.140291245 43.779664586)
59,West Rouge CC,"West Rouge CC has a long history in East Scarborough. The building was the clubhouse for a former golf course. Now being apart of the City of Toronto, WRCC is prime site for rental use of the Ballroom which is used for wedding receptions, pre-teen dances",,http://www1.toronto.ca/parks/prd/facilities/complex/584/,Community,270 Rouge Hills Dr,334954.977,4850082.299,-79.125104505,43.792090511,37898.0,60,POINT (-79.125104505 43.792090511)
60,Crossroads of the Danforth BIA Office,"The Crossroads is a growing neighbourhood along the Danforth Avenue between Victoria Park and Warden Avenue. Known as the automotive ares, today the Crossroads boasts a healthy mix of shops, restaurants, and health, beauty and wellness businesses as well",,http://www.codbia.ca/,Community,3224 Danforth Avenue,322313.311,4838997.474,-79.2825502373,43.6927276718,37899.0,61,POINT (-79.2825502373029 43.6927276718455)
61,Tudor Birch Grove (Mural),"by Sara Collard. A beautiful mural commission by our design contest winner Sara Collard, assisted by Meaghann McLeod, one of our Leadership Training 2012 graduates. The project will continue to add murals with community input and support in 2013.",,www.muralroutes.com,Public Art,"-79.2690200805664,43.6893348693847",323404.735,4838624.433,-79.2690200806,43.6893348694,37575.0,62,POINT (-79.26902008056641 43.6893348693847)
62,Bank of Commerce/Council Chambers,This building is the oldest building standing where the Scarborough councils met in the second storey  from 1922-late 1940s.,,,Heritage,1660 Kingston Road,323748.91,4838890.626,-79.2647447175,43.6917306564,37882.0,63,POINT (-79.2647447174941 43.6917306564455)
63,Wheels on the Danforth,Wheels on Danforth is an annual summer community festival that features car shows. The Crossroads is truly a hidden gem at the east end of Danforth Avenue. Visit the BIA office at 3224 Danforth Avenue for information and maps.,,http://wheelsonthedanforth.ca/,Community,"-79.281633,43.692713",322386.993,4838996.993,-79.281633,43.692713,37577.0,64,POINT (-79.281633 43.692713)
64,Rosetta McClain Gardens,"Formal gardens with specially designed braille signage, raised planters, varied texture pathways and ramps to accommodate visitors of varied abilities. The park is filled with rose gardens and a rock fountain surrounded by a pergola. It has spectacular v",,http://www1.toronto.ca/parks/prd/facilities/complex/19/,Park,"-79.255545,43.696506",324488.685,4839424.261,-79.255545,43.696506,37579.0,65,POINT (-79.255545 43.696506)
65,Scarborough War Memorial (Memorial),Scarborough War Memorial was constructed in 1921 with limestone and bronze. The artist is unknown.,,,Public Art,"-79.2537689208984,43.7026634216308",324629.797,4840108.746,-79.2537689209,43.7026634216,37580.0,66,POINT (-79.25376892089839 43.7026634216308)
66,Community Tansitions (Mural),"Community Transitions depicts Scarborough's transition from a farming community to an urban setting, an idea which was derived from the suggestions of community members. Artists: Peter Adas and Amann Merali",,muralroutes.com/towns/heritagetrail/youth.htm,Public Art,"-79.251959,43.706069",324774.526,4840487.523,-79.251959,43.706069,37581.0,67,POINT (-79.251959 43.706069)
67,R.C. Harris Water Filtration Plant,R.C. Harris Water Filtration Plant is designated as national historic site and is the largest in Toronto.,,,Heritage,2701 Queen Street East,322589.571,4836960.422,-79.2791897892,43.6743851983,37878.0,68,POINT (-79.2791897891768 43.6743851983192)
68,Bauhaus Dwelling,This house is the only house in Ontario that is designed in early 20th century Bauhaus architectural style.,,,Heritage,236 Warden Avenue,323172.086,4838617.757,-79.2719094705,43.6892891284,37879.0,69,POINT (-79.271909470545 43.6892891283915)
69,Totem Pole (Meadowvale Public School),"There is a totem pole on the ground of Meadowvale Public School. It has been there for more than 50 years and nothing is known. There was a time capsule buried, however, no information was retrived because documents were covered with wax.",,,Heritage,761 Meadowvale Road,331817.739,4850448.895,-79.164068184,43.795511013,37880.0,70,POINT (-79.164068184 43.795511013)
70,Scarborough Village Book Mobile Stop (TPL),"Mondays, weekly, 5:30-7pm. Markington Square Shopping Centre, Eglinton Avenue East and Markham Road, Southeast corner. It parks right beside the Beer Store.The Toronto Public Library operates two bookmobiles which serve areas that are not close to librar",,http://www.torontopubliclibrary.ca/bookmobiles/,Library,3205 Eglinton Avenue East,327491.584,4844509.85,-79.218076677,43.742197513,37881.0,71,POINT (-79.218076677 43.742197513)
71,Highland Creek Heritage Festival,Highland Creek Heritage Festival is an annual community festival for the eastern communities of Scarborough. It features the famous parade and all day activities.,,http://www.hchf.ca,Community,364 Old Kingston Rd,331309.514,4849133.484,-79.1704517381,43.7836978982,38814.0,72,POINT (-79.1704517380566 43.7836978982403)
72,Port Union Waterfront Festival,"The Port Union Waterfront Festival is a collaborative, community based festival, organized by local groups in southeast Scarborough. Everyone is welcome to share this very special day in our community.",,http://www.waterfrontpark.ca/,Community,105 Bridgend Street,334387.314,4848583.354,-79.1322434204,43.7786304496,37892.0,73,POINT (-79.1322434203969 43.7786304496365)
73,Boys and Girls Club of East Scarborough,"The Boys & Girls Club of East Scarborough has been serving our community since 1956. Each year the Club provides service to over 7,000 children and youth in over15 locations throughout the East Scarborough commnuity. These programs include licenced child",,http://www.esbgc.org/,Community,100 Galloway Road,329477.861,4846208.958,-79.1933416857,43.7574370569,37893.0,74,POINT (-79.19334168566959 43.7574370568756)
74,Variety Village,"For over 60 years Variety Village's goal has been to improve the quality of life of all people, regardless of their abilities. By offering specialized programs and services, Variety Village create a level playing field without barriers, intimidation or o",,http://www.varietyvillage.ca/,Community,3701 Danforth Avenue,324352.8,4839654.886,-79.257225699,43.6985940907,37894.0,75,POINT (-79.2572256990061 43.6985940907456)
75,Scarborough Village RC,"A City of Toronto facility located in a priority neighbourhood, offering a wide range of recreational programs and a variety of opportunities for everyone from pre-school to older adults. The only community centre in Scarborough that has a theatre.",,http://www1.toronto.ca/parks/prd/facilities/complex/743/,Community,3600 Kingston Road,327598.615,4844265.107,-79.216758124,43.739991316,37895.0,76,POINT (-79.21675812399999 43.739991316)
76,Heron Park CC,"This 4.7 hectare park on Lawrence Avenue East east of Morningside Road features a lighted ball diamond, five lighted tennis courts, a splash pad and a children's playground. Connected to the park is Heron Park Community Recreation Centre.",,http://www1.toronto.ca/parks/prd/facilities/complex/633/,Community,292 Manse Rd,330793.529,4847483.451,-79.176938353,43.768855608,37896.0,77,POINT (-79.176938353 43.768855608)
77,Spooner's Garage (Mural),"The unique ""double"" mural, painted on facing walls by Phillip Woolf, depicts two eras in the life of Spooner's Garage. Built in 1926 and rebuilt in 1947, the garage was located on the south side of Kingston Road in Cliffside Village. Owner Art Spooner ke",,http://www.muralroutes.com/towns/heritagetrail/heritage.htm,Public Art,2340 Kingston Road,324829.075,4840594.778,-79.251278162,43.707032964,37821.0,78,POINT (-79.25127816200001 43.707032964)
78,The Bluffs as Viewed by Elizabeth Simcoe c. 1793 (Mural),"Elizabeth Simcoe, wife of Lieutenant-Governor John Graves Simcoe was so impressed with the sight of the Bluffs as she saw them from a small boat, that she convinced her husband to name the area after a town in England with similar cliffs. She wrote in he",,http://www.muralroutes.com/towns/heritagetrail/heritage.htm,Public Art,2384 Kingston Road,324870.487,4840708.973,-79.2507632508,43.7080683649,37822.0,79,POINT (-79.2507632508227 43.7080683648641)
79,Crucified Again,"The Masaryk Memorial Institute took patronage of the monument and donated a piece of Masaryktown property to the project. The chosen piece was discovered by the famous dissident, poet and singer Karel Kryl during his Canadian tour in a Winnipeg studio of",,http://masaryktown.ca/?page_id=437,Public Art,450 Scarborough Golf Club Road,327655.001,4845806.116,-79.215992997,43.753860323,37827.0,80,POINT (-79.215992997 43.753860323)
80,East Scarborough Community Choir,Scarborough-East Community Multicultural & Gospel (SECMG) provides a platform for young individuals living in KGO to express their musical talents and passions by participating in song and performance. Choir members learn and perform a wide array of popu,,http://www.thestorefront.org/what-were-working-on/neighbourhood-trust/secmg-choir/,Creative,100 Galloway Road,329477.861,4846208.958,-79.1933416857,43.7574370569,37829.0,81,POINT (-79.19334168566959 43.7574370568756)
81,RISE Edutainment,Reaching Intelligent Souls Everywhere (RISE); a multifaceted collective of Artists and Activists providing a welcoming and safe platform for the arts. RISE Poetry Open Micis held at Burrows hall every Monday at 6:30pm.,,http://socialinnovation.ca/community/organizations/rise-edutainment-project,Creative,1081 Progress Avenue,326161.149,4850265.841,-79.234370217,43.7940560018,38809.0,82,POINT (-79.2343702170112 43.794056001784)
82,Mayettes,Mayettes restaurant offers the fusion of tastes of Spanish and Asian cuisine with delicious Filipino cooking. Savour the flavours of the distinct Filipino culinary tradition.,,http://mayettes.ca/,Business,3331 Danforth Avenue,322420.018,4838983.173,-79.2812269623,43.6925964194,37900.0,83,POINT (-79.2812269622539 43.6925964193902)
83,Nilgiris,"Nilgiris has been in business since 2001. Their specialties are Idly, all varieties of Dosas, Uthappam, Biriyani, Thali and Sweets and Snacks. They are famous for soft and delicious Idlies. Experience the authentic taste of Tamil Nadu.",,http://www.nilgiristoronto.ca/,Business,3021 Markham Road,324991.629,4854168.184,-79.2487571268,43.8292139899,37901.0,84,POINT (-79.24875712683929 43.8292139899346)
84,O'Conner House,"O'Connor House operates as a hub for educational, cultural and heritage activities that will benefit and enrich our diverse community. The mission of O'Connor House is to inspire all of us by honouring the legacy of a great Canadian, the late Senator Fra",https://www.facebook.com/SenatorOConnorHouse,http://www.oconnorhouse.ca,Heritage,50 Rowena Drive,319503.838,4845342.241,-79.317226121,43.749890463,37877.0,85,POINT (-79.317226121 43.749890463)
85,Metamorphosis (Mural),"Metamorphosis is an inspirational mural based on the theme of change or transformation, bringing positivity and inspiration to the entrance of the community center. This mural project was a partnership between Mural Routes and Warden Wood Community Centr",,http://www.plus.google.com/photos/104851983791047425741/albums/5672741997752493873?banner=pwa&gpsrc=pwrd1,Public Art,74 Firvalley Court,322673.48,4840251.995,-79.278037158,43.704002783,37813.0,86,POINT (-79.278037158 43.704002783)
86,Mitchell's General Store (Mural),"Toronto artist Phil Irish completed the 11th mural on Mural Routes Heritage Trail in September 1998. Located at 1728 Kingston Road in Scarborough, the mural, entitled ""Mitchell's General Store"", depicts life in surrounding community of Birch Cliff in the",,http://www.muralroutes.com/towns/heritagetrail/heritage.htm,Public Art,1728 Kingston Road,323903.383,4839037.84,-79.2628233249,43.6930516976,37814.0,87,POINT (-79.26282332493579 43.6930516975787)
87,Natural Mystic (Mural),"The theme of Natural Mystic is -New Beginnings-It portrays a family-s journey and their will to reach a safe and peaceful destination in which to live, a need that we feel is shared by all humans. 
",,http://www.muralroutes.com/towns/heritagetrail/youth.htm,Public Art,3228 Eglinton Avenue East,327586.064,4844704.456,-79.216895474,43.743946291,37815.0,88,POINT (-79.216895474 43.743946291)
88,Puzzle (Mural),"The concept of the 'Puzzle Mural' was developed by artist Elaine Teguibon as part of an independent study project for the Leadership Training in Mural Making program 2011. Elaine writes in her proposal ""The Jigsaw puzzle represents the importance of crea",,http://www.muralroutes.com/towns/heritagetrail/youth.htm,Public Art,747 Warden Avenue,322283.413,4841788.305,-79.282830154,43.7178490569,37816.0,89,POINT (-79.2828301539877 43.7178490568893)
89,Reflections (Mural),"The theme of a ?media art gallery? was chosen by the youth to reflect their views on how media and advertising affect youths today. Each youth artist created an individual piece within the mural to comment on issues of materialism, body image and self-re",,http://www.muralroutes.com/towns/heritagetrail/youth.htm,Public Art,510 Brimley Road,325060.434,4843765.378,-79.2482919201,43.7355747358,37817.0,90,POINT (-79.2482919201353 43.7355747357863)
90,Sail On And Fair Well (Mural),"This mural was conceived as the companion mural to Sail On and Fair Well (2009). It was designed for the upper level of a neighbourhood plaza, and painted during the summer of 2010. The mural depicts aspects of the landscape and seasons, with some of the",,http://www.muralroutes.com/towns/heritagetrail/community.htm,Public Art,1051 Midland Avenue,324062.373,4844467.397,-79.260653518,43.741911917,37819.0,91,POINT (-79.260653518 43.741911917)
91,Scarborough Rifle Company (Mural),In 1862 the Scarborough Rifle Company was organized with headquarters in a school at Eglinton Avenue near Markham Road. It was the first of several militia companies formed in York County. The company was rushed to the Niagara Frontier three times in 186,,http://www.muralroutes.com/towns/heritagetrail/heritage.htm,Public Art,1577 Kingston Road,323571.085,4838696.753,-79.2669572791,43.6899902147,37820.0,92,POINT (-79.26695727905449 43.6899902146776)
92,Chrysalis (Mural),"Designed by artists Leah Burns, Katy Mulla and Ellen Bleiwas, the mural was inspired by stories told to the artists by Scarborough Storytellers - Bluffers Tales. Working with themes of metamorphosis, transition and migration, members of Bluffers Tales to",,http://www.muralroutes.com/towns/heritagetrail/youth.htm,Public Art,2446 Kingston Road,324954.904,4840881.202,-79.2497092724,43.7096163814,37801.0,93,POINT (-79.2497092723644 43.7096163813918)
93,Flight (Mural),"The mural explores themes of migration, transition, and change - inspired by the migration of the Monarch Butterfly, a fragile and fascinating species that is symbolic of the constant state of change and flux experienced by residents of the Kingston Road",,http://www.muralroutes.com/towns/heritagetrail/youth.htm,Public Art,"-79.26797485351563, 43.70634841918945",323483.704,4840514.825,-79.2679748535,43.7063484192,37876.0,94,POINT (-79.26797485351563 43.70634841918945)
94,Greeting to Taniperla (Mural),Greeting to Taniperla intends to draw attention to the struggle in Chiapas and to issues affecting our own communities.,,http://www.aspacegallery.org/cab2000/projects/greeting.html,Public Art,2685 Kingston Road,325665.113,4841694.341,-79.2408650075,43.7169161101,37807.0,95,POINT (-79.24086500751341 43.7169161100913)
95,"H.M. Schooner, Onondaga c. 1793 (Mural)","The Onondaga was built near Kingston in 1790 and served as flagship of the Provinicial Marine until her retirement in 1797. This was the ship in which Lieutenant-Governor John Graves Simcoe and his wife Elizabeth sailed across Lake Ontario, from Niagara-",,http://www.muralroutes.com/towns/heritagetrail/heritage.htm,Public Art,2340 Kingston Road,324822.075,4840587.778,-79.2513684748,43.7069787427,37808.0,96,POINT (-79.25136847477459 43.7069787426757)
96,Halfway House (Mural),Half Way House was a rural stage coach stop half way between the village of Dunbarton and the St. Lawrence Market in Toronto. The building served many purposes before being moved to Black Creek Pioneer Village in 1965.,,http://www.muralroutes.com/towns/heritagetrail/heritage.htm,Public Art,2502 Kingston Road,325032.499,4841033.34,-79.2487406351,43.7109837025,37809.0,97,POINT (-79.2487406350716 43.7109837025367)
97,In the Way of Progress (Mural),"This commemorative mural depicts passengers boarding a radial car at Stop 17 on the Toronto and York Radial Line, at the junction of St Clair Avenue and Kingston Road. In the background is Scarborough High School, now R.H. King Academy, which was built i",,http://www.muralroutes.com/towns/heritagetrail/heritage.htm,Public Art,2835 Kingston Road,326014.829,4842182.197,-79.2365055331,43.7212972195,37810.0,98,POINT (-79.2365055331032 43.721297219492)
98,Intersections (Mural),"Intersections, was created by student artists as part of a youth summer training initiative run by Mural Routes to discourage graffiti vandalism and improve the visual appearance of the commercial area in Dorset Park/Wexford Heights community.",,http://www.muralroutes.com/towns/heritagetrail/youth.htm,Public Art,2157 Lawrence Avenue East,322154.435,4845047.758,-79.2843258911,43.7471911087,37811.0,99,POINT (-79.2843258911263 43.7471911086836)
99,McGregor Community Centre (Mural),This mural was done by artist David Wright for the renovation of McGregor Community Centre,,http://www.muralroutes.com,Public Art,2231 Lawrence Avenue East,322490.444,4845098.196,-79.280148998,43.747628585,37812.0,100,POINT (-79.280148998 43.747628585)
100,Morningside Branch (TPL),"Morningside is a neighbourhood branch which features: art exhibit space, meeting room, and Leading to Reading program. It is located next to Heron Park Community Recreation Centre near Morningside Park, Highland Creek Watershed, University of Toronto Sca",,http://www.torontopubliclibrary.ca/detail.jsp?R=LIB066,Library,4279 Lawrence Avenue East,330671.896,4847593.84,-79.1784470285,43.7698620372,37791.0,101,POINT (-79.17844702850689 43.7698620372042)
101,Taylor Memorial Branch (TPL),"Taylor Memorial Library is a neighbourhood branch which features: art exhibit space, outdoor reading garden and patio, fireside reading lounge, meeting room, and adult book discussion group. It is located near Rosetta McClain Gardens. This branch hosts e",,http://www.torontopubliclibrary.ca/detail.jsp?Nr=p_cat_branch_name:Taylor%20Memorial,Library,1440 Kingston Road,323221.15,4838456.819,-79.2713061954,43.6878392935,37792.0,102,POINT (-79.2713061954239 43.6878392935495)
102,Bendale Branch (TPL),"Bendale is a neighbourhood branch which features: adult book discussion groups in afternoon and evening and meeting room. It hosts Scarborough Historical Society meetings.
",,http://www.torontopubliclibrary.ca/detail.jsp?Entt=RDMLIB026&R=LIB026,Library,1515 Danforth Road,325398.686,4845489.212,-79.2440272954,43.7510824059,37793.0,103,POINT (-79.2440272954227 43.7510824059292)
103,Port Union Branch (TPL),Port Union is a neighbourhood branch which features: meeting room and Monday Movie Night program for adults every Monday from 6to 8pm. It is located in the Port Union Community Recreation Centre near the Port Union Waterfront Park and Waterfront Trail. T,,http://www.torontopubliclibrary.ca/detail.jsp?Entt=RDMLIB077&R=LIB077,Library,5450 Lawrence Avenue East,333738.755,4848696.362,-79.140291245,43.779664586,37794.0,104,POINT (-79.140291245 43.779664586)
104,Highland Creek Branch (TPL),"Highland Creek is a neighbourhood branch which features: meeting room, fireside reading lounge, outdoor reading patio, Leading to Reading program, Tea and Movie program in fall 2014. It is located near the Highland Creek Watershed, University of Toronto",,http://www.torontopubliclibrary.ca/detail.jsp?Entt=RDMLIB050&R=LIB050,Library,3550 Ellesmere Road,330921.514,4849839.831,-79.1752378239,43.7900692631,37795.0,105,POINT (-79.1752378238658 43.7900692630869)
105,Glamorgan Book Mobile Stop (TPL),"Thursdays, weekly, 3-4:30pm. The Toronto Public Library operates two bookmobiles which serve areas that are not close to library branches.The bookmobile carries a complete range of items similar to what is offered in library branches.",,http://www.torontopubliclibrary.ca/bookmobiles/,Library,120 Dundalk Drive,321923.288,4847713.079,-79.2871116149,43.7711874751,37796.0,106,POINT (-79.2871116149084 43.7711874751228)
106,Scarborough Town Centre Book Mobile Stop (TPL),"Thursdays, every other week, 6-7:30pm. Ellesmere and McCowan Avenue, Northeast corner. The Toronto Public Library operates two bookmobiles which serve areas that are not close to library branches.The bookmobile carries a complete range of items similar t",,http://www.torontopubliclibrary.ca/bookmobiles/,Library,300 Borough Drive,324263.493,4848286.541,-79.2580219048,43.7762918562,37797.0,107,POINT (-79.2580219047864 43.7762918561851)
107,Oakridge Community Centre Book Mobile Stop (TPL),"Thursdays, every other week, 11am-12:30pm. The Toronto Public Library operates two bookmobiles which serve areas that are not close to library branches.The bookmobile carries a complete range of items similar to what is offered in library branches.
",,http://www.torontopubliclibrary.ca/bookmobiles/,Library,63 Pharmacy Avenue,322200.777,4839187.539,-79.2839401027,43.6944411322,37798.0,108,POINT (-79.28394010265291 43.6944411321534)
108,Birch Cliff Village (Mural),This project is a partnership of Birch Cliff Village Residents Mural Committee and Mural Routes. Mural Routes was approached by residents of the Birch Cliff Village community in east Toronto to find ways of improving their neighbourhood through mural art,,http://www.muralroutes.com/towns/heritagetrail/youth.htm,Public Art,1564 Kingston Road,323519.879,4838714.012,-79.2675918875,43.6901468721,37800.0,109,POINT (-79.267591887455 43.6901468720814)
109,Centennial United Church,Centennial Church was built in 1891. It is an excellent example of late Gothic Revival style architecture with Victorian overtones.,,,Heritage,6540 Kingston Road,332601.936,4850321.122,-79.1543326962,43.7943405005,37782.0,110,POINT (-79.15433269619631 43.7943405005146)
110,Scarborough Historical Society,"Preserving, promoting and stimulating an interest in the history of Scarborough, the Scarborough Historical Society is one of the largest and most active historical societies in Canada. Whether built or natural heritage,
genealogy, artifacts, archival do",,,Community,6282 Kingston Road,331949.816,4849701.403,-79.1624678951,43.7887862705,38812.0,111,POINT (-79.1624678950766 43.7887862704709)
111,Albert Campbell Library (TPL),"Albert Campbell Library is a disctrict library that features: Two book discussion groups in English (adult and seniors) and one in Mandarin, Computer Learning Centre, meeting rooms, Leading to Reading program, Yough Advisory Group, and English Conversati",,http://www.torontopubliclibrary.ca/detail.jsp?R=LIB03,Library,496 Birchmount Road,323372.498,4840704.238,-79.269351385,43.7080647928,37784.0,112,POINT (-79.2693513849578 43.7080647927569)
112,Cedarbrae Branch (TPL),"Cedarbrae is a district library which features: adult book discussion group, outdoor reading area, local history room with Scarborough historical collection, meeting room, Computer Learning Centre, KidsStop Early Literacy Centre, Leading to Reading progr",,http://www.torontopubliclibrary.ca/detail.jsp?R=LIB08,Library,545 Markham Road,327011.648,4846213.733,-79.2239684307,43.7575573466,37785.0,113,POINT (-79.22396843069789 43.7575573465952)
113,Cliffcrest Branch (TPL),"Cliffcrest is a neighbourhood branch which features: art exhibit space, adult book discussion group, and meeting rooms. It is also located in Cliffcrest Plaze near Bluffer's Park and the Scarborough Bluffs. The library hosts Memoir wriring group on Tuesd",,http://www.torontopubliclibrary.ca/detail.jsp?R=LIB033,Library,3017 Kingston Road,326474.451,4842626.318,-79.230780156,43.725273175,37786.0,114,POINT (-79.23078015599999 43.725273175)
114,Eglinton Square Branch (TPL),"Eglinton Square Library is a neighbourhood branch which features: meeting room, adult book discussion groups in afternnon and evening, and monthly movie program on 2nd Thursday afternoon of each month. It is located in Englinton Square Mall. It hosts Aut",,http://www.torontopubliclibrary.ca/detail.jsp?R=LIB042,Library,1 Eglinton Square,320832.034,4842358.377,-79.3008259479,43.7230127689,37787.0,115,POINT (-79.3008259478585 43.7230127689251)
115,Guildwood Branch (TPL),"Guildwood is a neighbourhood branch which features: art exhibit space and adult book discussion group. It is located in Guildwood Plaze near the Guild Park & Gardens.
",,http://www.torontopubliclibrary.ca/detail.jsp?R=LIB139,Library,123 Guildwood Parkway,328996.403,4845031.21,-79.1993737354,43.7468515948,37788.0,116,POINT (-79.1993737354089 43.7468515948261)
116,Kennedy/Eglinton Branch (TPL) / ProTech Media Centre,"Kennedy/Eglinton Library is a community branch that features: adult book discussion group, meeting room, Teen Zone, youth Advisory Group, YAG book discussion group, and Kennedy/Eglinton ProTech Media Centre which offers access to technology and a variety",,http://www.torontopubliclibrary.ca/detail.jsp?Entt=RDMLIB138&R=LIB138,Library,2380 Eglinton Avenue East,323283.516,4843392.288,-79.2703636475,43.7322626856,37789.0,117,POINT (-79.2703636474637 43.7322626855754)
117,McGregor Park Brench (TPL),"McGregor Park is a neighbourhood branch which features: meeting room, adult book discussion group and Youth Advisory Group. It is attached to the McGregor Park Community Centre.
",,http://www.torontopubliclibrary.ca/detail.jsp?Entt=RDMLIB064&R=LIB064,Library,2219  Lawrence Avenue East,322414.761,4845128.407,-79.281090929,43.7479109207,37790.0,118,POINT (-79.2810909290025 43.7479109206534)
118,St Margaret In the Pines West Hill,"St. Margaret is the first Anglican church in Scarborough built in 1833. A brick personage was built on six acres adjoining the churchyard in 1857, and provided a comfortable home for successive clergy for 100 years. The original wooden church, destroyed",,,Heritage,4130 Lawrence Avenue East,329525.059,4847453.376,-79.1926983278,43.7686365005,37770.0,119,POINT (-79.192698327765 43.7686365004751)
119,Richardson House,The first storey of this house was built in 1824 of wood and the second storey was added later when the wood was bricked over. J.H.Richardson was the person instrumental in establishing the West Hill Post Office. This house is a very good example of the,,,Heritage,27 Old Kingston Road,330358.953,4848171.684,-79.1823067137,43.775073988,37771.0,120,POINT (-79.1823067136832 43.7750739879751)
120,Richardson-Corson House,"In 1896, John Hunter Richardson became Scarborough Township treasurer and about 1904 he built a new house on the lot adjacent to he family's original dwelling. After his death, the property and the 1904 house was acquired by Dr. Corson.",,,Heritage,21 Old Kingston Road,330357.979,4848124.45,-79.1823210507,43.7746488614,37772.0,121,POINT (-79.1823210506753 43.7746488613568)
121,James Thomson House,"This property was patented in 1802 by Andrew Thomson, a native of Dumfrieshire, Scotland and a brother to Scarborough's first white settler, David Thomson. His son James A. acquired the land in 1839 and in 1840, he built this bank house with stones gathe",,,Heritage,146 St Andrews Road,325001.535,4846506.983,-79.2489204149,43.7602542416,37776.0,122,POINT (-79.24892041494461 43.7602542416408)
122,William Thomson House,"Built in 1848, this house was the dwelling place for wiliam Thomson, the eighth child of Scarborough's first settlers. His great granddaughter Dr. Isabella M. Davidson, became the first Scarborough woman to graduate in medicine in 1902 and, after serving",,,Heritage,1 St Andrews Road,324278.909,4846658.711,-79.2578894787,43.761639373,37777.0,123,POINT (-79.2578894787158 43.7616393729596)
123,Melville Presbyterian Church,"On a Sunday in February 1852 the church, now called Melville Presbyterian was consecrated. The following Sunday 24 members in their new church celebrated the church?s first Communion.Many members of Melville Presbyterian would walk, from the farms that s",,http://melvillechurch.ca/about-us/,Heritage,70 Old Kingston Road,330449.636,4848362.755,-79.1811711694,43.7767906939,37778.0,124,POINT (-79.1811711694133 43.7767906939363)
124,Church of St. Jude Wexford,"St. Jude's Anglican Church is a small but perfectly scaled model in wood of a stone prototype in England which was Reverend william Stewart Darling, St. Jude's first minister's home church.",,http://www.stjudewexford.ca/web/history.php,Heritage,1745 Victoria Park Avenue,320345.935,4844106.523,-79.3068087291,43.7387587288,37779.0,125,POINT (-79.30680872913889 43.7387587288332)
125,Zion Wexford United Church,"This church was built in 1876. Today, the old building seres as a meeting hall for Zion-Wexford United Church which holds regular services in the modern building to the west.",,,Heritage,2102 Lawrence Avenue East,321660.117,4844992.637,-79.2904655169,43.7467062626,37780.0,126,POINT (-79.2904655168695 43.7467062625848)
126,Highland Creek Public School,"Highland Creek Public School, formerly SS#7 is designated under the Ontario heritage Act.
It is one of the oldest schools in Scarborough and architecturally unique in the community.",,,Heritage,1410 Military Trail,330665.863,4849110.073,-79.1784494765,43.7835095173,37781.0,127,POINT (-79.17844947646149 43.7835095172513)
127,Washington Manse (Hope Church),Washington Manse is also calleed Washington Parsonage or Chester House. It was built in 1875 and enlarged in 1893. This was the first parsonage built by the Washington Methodist congregation in Scarborough. The building is a third quarter of the 19th cen,,http://www.hopetoronto.com/site/cpage.asp?cpage_id=140031315&sec_id=140003679,Heritage,14 Centre Street,327222.584,4844687.179,-79.2214122643,43.7438103341,37756.0,128,POINT (-79.2214122642639 43.7438103340805)
128,Birchmount Firehall,"The Birchmount Firehall was the first firehall to be built in Scarborough. The building was built in 1925 not only housing the Township's first fire department, but the first police department as well. It was also used as the Township's jail for a number",,,Heritage,351 Birchmount Road,323741.045,4839796.717,-79.264810207,43.6998867151,37759.0,129,POINT (-79.26481020702479 43.6998867151007)
129,Mann Coach House,"Mann Coach House was a gate house to Donald Mann's massive house that had 20+ rooms.  Donald Mann was a Canadian railway contractor and entrepreneur. Unfortunetely, his massive house that was at the South of the gate house was burnt down in the 1930s and",,,Heritage,1253 Kingston Road,322726.821,4837921.412,-79.2774564709,43.6830317382,37761.0,130,POINT (-79.2774564709387 43.6830317382251)
130,Stinson's Stop 17 Shop,"Stionson's Shop is a Scarborough landmark as a fine place to stop for soda in early 20th century. Unfortunetely, this building has been abandoned. It received heritage designation in 2008 as it is a rare surviving building connected to the recreational a",,,Heritage,171 Midland Avenue,325104.266,4841009.966,-79.2478509672,43.7107713465,37764.0,131,POINT (-79.2478509672477 43.7107713465213)
131,Eckardt House,"Also known as ""Edgemont"" House, it was a large summer home of businessman H.P. Eckardt overlooking Lake Ontario. It remains a picturesque, private dwelling today, although altered and renovated on numerous occasions over the years. This building is an ex",,,Heritage,1 Fallingbrook Road,322830.816,4837110.449,-79.2761930934,43.6757298035,37765.0,132,POINT (-79.27619309343579 43.6757298034885)
132,William Devenish House,"This building was the house of Wiliam Devenish who settled in 1803 on what was originally a 200 acre farm lot. In 1807, he built the first frame barn in Scarborough on this land. Devenish served 27 years as assessor, tax collector and copmmissioner for t",,,Heritage,1355 Victoria Park Avenue,321002.376,4841599.86,-79.298734668,43.716181507,37766.0,133,POINT (-79.2987346679699 43.7161815069719)
133,St Andrews Presbyterian Church,St Andrews Church and Cemetery area is a beautiful historical area of Scarborough. The church cemetery contains a history of early Scarborough; cemetery sit on land that was once part of the Thomson farm.,,http://www.standrewsscarborough.com/cemetary/,Heritage,115 St Andrews Road,324759.687,4846504.187,-79.251920938,43.760227068,37767.0,134,POINT (-79.251920938 43.760227068)
134,Stone Cottage Pub/Jeremiah Annis House,This building was built in 1876 and was a house of Jeremiah Annis. Jeremiah Annis came to Canada from the U.S. in 1793 and opened one of the first inns for pioneer travellers along Kingston Road in 1808. South of the church is the old annis family cemeta,,,Heritage,3750 Kingston Road,328210.652,4845037.598,-79.2091295981,43.7469341868,37769.0,135,POINT (-79.2091295980518 43.7469341867642)
135,Theatre Scarborough,Theatre Scarborough is an affiliation of community theatre groups who perform at the Scarborough Village Theatre.,,http://www.theatrescarborough.com,Creative,3600 Kingston Road,327605.615,4844272.107,-79.216670924,43.740054109,37746.0,136,POINT (-79.216670924 43.740054109)
136,Framing Dames Art School,"The art school focuses on the elements and principles of design by exploring different media, and concentrating on the development of each students own creative potential.",https://www.facebook.com/pages/Framing-Dames/239853708475,http://www.framingdamesartschool.com,Creative,362 Old Kingston Road,331304.847,4849129.651,-79.1705099098,43.7836635639,37747.0,137,POINT (-79.1705099098039 43.7836635639233)
137,RH King Academy,"The academy strives to to enable all students to achieve their full potential through a well-rounded education, structured by the R.H. King Academy concepts and guided by a commitment to the core values of caring, striving and serving",,http://www.schools.tdsb.on.ca/rhking,Creative,3800 St Clair Avenue East,325938.005,4842330.127,-79.2374532288,43.7226309438,37748.0,138,POINT (-79.2374532287828 43.7226309437639)
138,Wexford Collegiate School for the Arts,"Wexford College provides a strong academic, athletic and technological program for all its students. Its safe and caring environment inspires life-long learning and a desire for personal excellence.",,http://www.wexfordcsa.ca,Creative,1176 Pharmacy Avenue,320344.841,4844929.661,-79.3067985983,43.746168173,37749.0,139,POINT (-79.306798598276 43.7461681730236)
139,Guild Alive with Culture,"The Guild Alive with Culture Art Festival is a two day event featuring artists, vendors, music, and demonstrations. The festival showcases local talent in music, and visual arts, new eateries and more. Family friendly, there are also community groups, li",,http://www.guildalivewithculture.ca,Creative,"-79.191934, 43.747308",329595.133,4845085.052,-79.191934,43.747308,37873.0,140,POINT (-79.191934 43.747308)
140,Birch Cliff Public School,"Birch Cliff P.S. is a school steeped in the history of Scarborough. Mrs. Reece, the first principal at Birch Cliff, left a journal dating back to 1916. Entries provide a glimpse of life at the school; successes at the Agincourt and New Market School Fair",,,Heritage,1650 Kingston Road,323689.151,4838927.058,-79.265481546,43.692051549,37752.0,141,POINT (-79.265481546 43.692051549)
141,Fred Coates House,"This is the house of two Canadian artists, Frederick and Luoise coates. Chine Drive, where the house is located, is a small and unique community that is hidden.The topography of Chine Drive includes a wooded ravine to the west which the southern portion",,,Heritage,68 Chine Drive,325435.087,4840906.885,-79.2437497655,43.7098342368,37753.0,142,POINT (-79.2437497655386 43.7098342367615)
142,J. P. Wheler House  (Bendale Bible Chapel),"This was the home of J.P. Wheler, a very prominent miller, one of the fathers of Scarborough's incorporation in 1850 and distinguished as holding the office of Reeve for 18 years. The house is an example of the rural Victorian style in nineteenth century",,,Heritage,328 Bellamy Road N,326132.213,4845869.246,-79.2349034484,43.7544823172,38810.0,143,POINT (-79.23490344843469 43.7544823172061)
143,Saint Augustine's Seminary,"In 1890, the idea was conceived to build a seminary which would provide native English speaking priests to parished throughout Canada. After various fundraising campaign, St. Augustine's Seminary was begun in 1910. Completed 3 years later and fitted to a",,http://www.staugustines.on.ca/index.html,Heritage,2661 Kingston Road,325616.513,4841293.08,-79.241483608,43.7133057727,37755.0,144,POINT (-79.24148360798149 43.7133057727441)
144,Guild Festival Theatre,Guild Festival Theatre presents a high-profile annual theatre festival of classics on the open-air Greek stage at the historic Guild.,https://www.facebook.com/GuildFestivalTheatre,http://www.guildfestivaltheatre.ca,Creative,201 Guildwood Parkway,329684.388,4845298.882,-79.190815867,43.749229763,37734.0,145,POINT (-79.190815867 43.749229763)
145,"Guild Park (Inn, Greek Theatre, Gardens)","Guild Park was site of the innovative Guild of All Arts, a community association focused on improving, enhancing and pretoecing Guild Park and Gardens.",https://www.facebook.com/GuildPark,http://www.guildpark.ca,Creative,201 Guildwood Parkway,329698.388,4845298.882,-79.19064203,43.749229296,37735.0,146,POINT (-79.19064203000001 43.749229296)
146,Healthy Living Through Art,"Healthy Living Through Art is for children and yough between the age of 5 to 18. HLA strives to facilitate dialogue about healthy living among children, youth and families.",,http://www.healthylivingart.ca,Creative,225 Morningside Avenue,330144.859,4847285.775,-79.1850076952,43.7671070711,37736.0,147,POINT (-79.1850076952483 43.7671070711353)
147,Mural Routes,"Mural Routes is the only member-based not-for-profit arts service organization in Canada dedicated to the creation, development and promotion of public wall art.",,http://www.muralroutes.com,Creative,1859 Kingston Road,324234.848,4839307.024,-79.258698367,43.695457489,37737.0,148,POINT (-79.25869836699999 43.695457489)
148,Music for Life Conservatory,Music for Life Conservatory offers access quality music programs at the lowest rates possible to the community while maintaining school's productivity and efficiency in the community.,,http://www.musicforlifeconservatory.com,Creative,1880-1890 Eglinton Avenue East,320939.282,4842638.012,-79.2994863159,43.7255274874,38808.0,149,POINT (-79.29948631594 43.7255274874045)
149,Scarborough Arts,Scarborough Arts is a non-profit organization; the only arts organization of its kind specifically serving the Scarborough community. We bring artists to the community and community to the arts.,https://twitter.com/scararts,http://www.scarborougharts.com,Creative,1859 Kingston Road,324227.848,4839300.024,-79.2587886605,43.695403262,37739.0,150,POINT (-79.2587886604676 43.6954032619519)
150,Scarborough Film Festival,"Scarborough Film Festival is an annual six day celebration showcasing the latest acclaimed local, Canadian and world cinema.",https://www.facebook.com/ScarboroughFilmFestival,http://www.scarboroughfilmfestival.com,Creative,2236 Queen Street East,321933.922,4836790.574,-79.2873260834,43.6728716357,37871.0,151,POINT (-79.2873260834314 43.6728716357183)
151,Scarborough Historical Museum,Scarborough Museum traces the story of this Toronto community's rural roots through the exploration of two centuries of immigration.,https://www.facebook.com/scarboroughmuseum,http://www.toronto.ca/wps/portal/contentonly?vgnextoid=a27d2271635af310VgnVCM10000071d60f89RCRD,Creative,"-79.169856,43.784111",331357.022,4849180.525,-79.169856,43.784111,37872.0,152,POINT (-79.169856 43.784111)
152,Scarborough Philharmonic Orchestra,"a community orchestra, dedicated to enriching lives through high-quality musical performances, offering an affordable, fulfilling, and convenient live entertainment experience.",https://www.facebook.com/ScarboroughPhilharmonicOrchestra,http://www.spo.ca,Creative,3007 Kingston Road,326499.062,4842623.242,-79.230474813,43.725244774,37742.0,153,POINT (-79.230474813 43.725244774)
153,Scarborough Town Jazz,"Scarborough Town Jazz is a community music festival that also features community arts and crafts, workshop, dance and food.",https://www.facebook.com/latinmusicprod,http://www.vlatinmusicprod.com/,Creative,100 Consilium Place,324723.039,4848371.618,-79.2523100056,43.7770455384,37744.0,154,POINT (-79.2523100056016 43.7770455384218)
154,Scarborough Village Theatre,"Scarborough Village Theatre is a venue for Scarborough Music Theatre, Scarborough Players, and Scarborough Theatre Guild.",,http://www.theatrescarborough.com,Creative,3600 Kingston Road,327598.615,4844265.107,-79.216758124,43.739991316,37745.0,155,POINT (-79.21675812399999 43.739991316)
155,Scarborough Ribfest,"Scarborough Ribfest is the biggest family-friendly community annual event in Scarborough, held in the month of August.",,http://www.scarboroughribfest.com,Community,1005 Brimley Road,324423.827,4846187.109,-79.256103584,43.757382007,37723.0,156,POINT (-79.256103584 43.757382007)
156,Taste of Lawrence,"Taste of Lawrence celebrates the cultural diversity of Toronto and the GTA by showcasing the unique cuisine, music, performers, vendors, retailers and community groups.",,http://www.tasteoflawrence.com,Community,1720 Lawrence Avenue East,320155.963,4844538.711,-79.3091549246,43.7426530451,37724.0,157,POINT (-79.30915492455939 43.7426530451029)
157,St. Paul's United Church,"St. Paul's United Church is a strong, small church seeking to build on its strengths.Ã¿",,,Community,200 McIntosh Street,324840.354,4840912.337,-79.2511294997,43.7098997137,37725.0,158,POINT (-79.25112949972591 43.7098997137018)
158,Masaryk Memorial Institute Inc.,"The role and mission of the Masaryk Memorial Institute is to provide a cultural, educational, and athletic centre for the general benefit of all, whether or not of Czechoslovak origin and to promote the collection and dissemination of the best in Canadia",,http://masaryktown.ca/,Community,450 Scarborough Golf Club Road,327627.001,4845806.116,-79.216340695,43.753861181,37726.0,159,POINT (-79.216340695 43.753861181)
159,Czech and Slovak Canada Day Festival,"Czech and Slovak Canada day festival celebrates the ethnic and diverse community, showing off talents through art froms such as dance and traional costume. It is open to all the ages. Children can enjoy bonfire. The festival is held annually during the l",,http://masaryktown.ca/,Community,450 Scarborough Golf Club Road,327648.001,4845806.116,-79.216079922,43.753860538,37727.0,160,POINT (-79.21607992200001 43.753860538)
160,Gold Picture Frames Gallery Wall,"For over 30 years, Gold Picture Frames has been committed to promoting and supporting artists within the Scarborough community. Ã¿With expansion, Gold Picture Frames have incorporated more space to serve the needs of both new and established artists in th",,http://www.gallerywall.ca/,Creative,3083 Kingston Road,326525.374,4842794.839,-79.2301445392,43.7267972663,37728.0,161,POINT (-79.2301445392384 43.7267972662817)
161,Acoustic Harvest Folk Club,"Acoustic Harvest Folk Club presents a monthly concert series featuring the finest local, national and international acoustic roots music in Toronto.",https://www.facebook.com/pages/Acoustic-Harvest/160540537291009,http://www.acousticharvest.ca,Creative,1512 Kingston Road,323392.095,4838650.13,-79.2691791954,43.6895750867,37729.0,162,POINT (-79.2691791953629 43.6895750867218)
162,Cathedral Bluffs Symphony Orchestra,"Cathedral Bluffs Symphony Orchestra is a registered, non-profit, charitable organization that is passionate about the power of orchestral music and the impact it has in love performance.",,http://www.cathedralbluffs.com,Creative,5183 Sheppard Avenue East,326231.708,4850335.863,-79.233487478,43.794675633,37730.0,163,POINT (-79.233487478 43.794675633)
163,Cedar Ridge Creative Centre,"Cedar Ridge Creative Centre is a vibrant arts hub housed in a historic mansion. Built as a family home in 1912, Cedar Ridge is surrounded by lush gardens and scenic woods with a variety of walking trails.",https://www.facebook.com/cedarridgecreativecentre,http://www.toronto.ca/cedarridge,Creative,225 Confederation Drive,328374.187,4846212.175,-79.207044523,43.757492994,37731.0,164,POINT (-79.20704452299999 43.757492994)
164,Doris McCarthy Gallery (DMG),"Doris McCarthy Gallery is visionary professional art gallery dedicated to the collection, presentation and dissemination of contemporary art in all media.
",,,Creative,1265 Military Trail,330027.415,4849157.564,-79.186376124,43.783950091,37733.0,165,POINT (-79.18637612400001 43.783950091)
165,Masaryk Memorial Institute Inc. - Czech and Slovak Cultural Centre,MMI is a not-for-profit charitable organization offering number of programmes and activities that promote and preserve the Czech and Slovak heritage in Canada.,,http://www.masaryktown.ca,Community,450 Scarborough Golf Club Road,327641.001,4845799.116,-79.216170331,43.7538063535,37713.0,166,POINT (-79.2161703309953 43.7538063534814)
166,Momiji Seniors Centre,Momiji is a not-for-profit organization offers assisted living and a wide range of community programs for seniors from Japanes Canadian and other cultural backgrounds in the greator Toronto area and beyond.,,http://www.momiji.on.ca,Community,3555 Kingston Road,327713.788,4844195.533,-79.2153343914,43.7393701329,37714.0,167,POINT (-79.2153343913684 43.7393701329262)
167,Native Child & Family Services (Richard Eade House),Service to protect children from all forms of maltreatment and to provide residential care for those children who need it.Ã¿,,http://www.nativechild.org,Community,156A Galloway Road,329330.843,4846766.282,-79.195138827,43.762449888,37715.0,168,POINT (-79.19513882699999 43.762449888)
168,The Point,"The Point is an important community space located up the street from The Storefront hub. It is dedicated to supporting resident ideas for community change and is home to the offices of ANC, Residents Rising and the City Studies program of the University",,,Community,4117 Lawrence Avenue East,329459.983,4847190.899,-79.193518674,43.7662761371,37716.0,169,POINT (-79.1935186740469 43.7662761371349)
169,UNITY - UNIFFECT,UNIFFECT stands for Universial Effects and is a youth leaders group of UNITY. UNITY holds breakdancing Drop-in programs at the Don Montgomery CRC every Saturdays from 6-9pm.,https://twitter.com/Uniffect,http://www.unitycharity.com/uncategorized/uniffect,Community,2467 Eglinton Avenue East,323983.871,4843439.64,-79.261664565,43.732662615,38807.0,170,POINT (-79.261664565 43.732662615)
170,Warden Woods Community Centre,"A neighborhood-based multi-service agency offering diverse programmes and services, community projects and special events .",https://www.facebook.com/pages/Warden-Woods-Community-Centre/12257770090,http://www.wardenwoods.com,Community,74 Firvalley Court,322666.48,4840244.995,-79.278124242,43.70393994,37718.0,171,POINT (-79.278124242 43.70393994)
171,Wexford Heights BIA / Lawrence Avenue Project,"Wexford Heights BIA brings the business community and the residential community together to create a neighbourhood that would be a great place to live, work and play through the Taste of Lawrence and a major streetscaping campaign. Lawrence Avnue Project",https://twitter.com/WexfordBIA,http://www.wexfordbia.ca,Community,1720 Lawrence Avenue East,320162.963,4844545.711,-79.309064602,43.742707304,37719.0,172,POINT (-79.30906460200001 43.742707304)
172,Scarborough Civic Centre,"Scarborough Civic Centre is a municipal office that has venues for public use by non-profit and charitable groups. It also has gallery display area, an ice rink, and a performance space outdoors, Albert Campbell Square.",,http://www1.toronto.ca/wps/portal/contentonly?vgnextoid=c07a957970422410VgnVCM10000071d60f89RCRD&vgnextchannel=68f2590dd3412410VgnVCM10000071d60f89RCRD,Community,150 Borough Drive,324327.227,4847900.922,-79.257240956,43.772810589,37720.0,173,POINT (-79.257240956 43.772810589)
173,Don Montgomery C.R.C,"A multi-purpose facility that offers a variety of programs such as cultural, creative, sports, youth, preschool, and seniors programs. Don Montgomery CRC is centrally located beside Kennedy Subway and Kennedy GO station for easy access.",,http://www1.toronto.ca/parks/prd/facilities/complex/712/,Community,2467 Eglinton Avenue East,323983.871,4843439.64,-79.261664565,43.732662615,37721.0,174,POINT (-79.261664565 43.732662615)
174,UTSC,"Post-secondary Institution, offers undergraduate and graduate studies, including Studio, Theatre, Art History, Music and Arts Management.",https://www.facebook.com/utsc1,http://www.utsc.utoronto.ca,Community,1265 Military Trail,330041.415,4849157.564,-79.186202187,43.783949618,37722.0,175,POINT (-79.18620218700001 43.783949618)
175,Hamish's Kitchen Restaurant,Hamish's offers fish and chips with relaxed atmosphere.,,,Business,641 Pharmacy Avenue,321610.802,4841018.081,-79.2912018134,43.710931469,37700.0,176,POINT (-79.2912018134123 43.710931469013)
176,Tara Inn,"Tara Inn is an Irish Pub offers traditional Irish breakfast, Irish pub food, and jumbo wings in variety of falvours.",,,Business,2351-2383 Kingston Road,324928.115,4840668.156,-79.2500497071,43.7076993946,38806.0,177,POINT (-79.2500497071276 43.7076993946123)
177,Bluffer's Restaurant,"Bluffer?s Restaurant is minutes from downtown Toronto, nestled in a 400-acre parkland with wall-to-wall windows and a breathtaking panoramic view of Scarborough Bluff?s Marina.Their International chefs have received the highest level of compliments in c",,http://www.bluffersparkrestaurant.com/HOME.html,Business,7 Brimley Road South,326394.059,4840515.614,-79.231862499,43.706276431,37702.0,178,POINT (-79.231862499 43.706276431)
178,Buster's Pub by the Bluffs,"Busters is a pub and is a short walk from the Scarborough Bluffs offering chicken wings, back ribs, and more.",,http://www.bustersbythebluffs.com/,Business,1539 Kingston Road,323478.281,4838636.03,-79.268110584,43.6894460088,37703.0,179,POINT (-79.2681105840356 43.6894460088271)
179,Won Studio,"Won Studio is a framing shop that provides frames, print, and art pieces.",,,Business,1567 Kingston Road,323533.572,4838677.59,-79.267423279,43.6898186852,37705.0,180,POINT (-79.26742327896051 43.6898186851851)
180,Prague Restaurant,"Prague Restaurant is a contemporary Euro-Canadian restaurant offering a wide range of Canadian and European dishes, including the famous Czech & Slovak cuisine. Closed on Mondays and Tuesdays.",,http://www.praguerestaurant.com/,Business,450 Scarborough Golf Club Road,327634.001,4845806.116,-79.21625377,43.753860966,37706.0,181,POINT (-79.21625376999999 43.753860966)
181,Oakridge Community Centre,"Oakridge Community Recreation Centre is a multi-purpose recreation centre located in the Oakridge community, which has a large population of newcomers to Canada. Oakridge is a designated Priority Centre, which means programs are offered free of charge. T",,http://www1.toronto.ca/parks/prd/facilities/complex/731/,Community,63 Pharmacy Avenue,322207.777,4839194.539,-79.283849829,43.694495381,37707.0,182,POINT (-79.283849829 43.694495381)
182,D'Ornellas Bike Cycling Club,D'Ornellas Cycling Club is a Toronto road bike club composed of men and women who share a common love of road cycling. It offers rides for both new and skilled cyclists. The club's most popular days are Saturday and Sunday mornings.,,http://www.dornellascyclingclub.ca/,Community,1894 Lawrence Avenue East,320788.93,4844737.615,-79.301287144,43.744421458,37709.0,183,POINT (-79.301287144 43.744421458)
183,AccessPoint on Danforth (Access Alliance),"A community space serving residents of Crescent Town, Teesdale, Secord-Lumsden and Dawes Road, and new immigrants and refugees living in Toronto",,http://www.accessalliance.ca/accesspoint,Community,3079 Danforth Avenue,321924.799,4838825.208,-79.2873753816,43.6911861169,37710.0,184,POINT (-79.2873753815679 43.6911861169467)
184,Birchmount Bluffs Neighbourhood Centre,"Birchmount Bluffs Neighbourhood Centre (BBNC) is a charitable, multi-service neighbourhood centre that offers a broad range of recreational, social and capacity-building programs to the southwest Scarborough community.",,http://www.bbnc.ca,Community,93 Birchmount Road,323879.352,4839324.488,-79.2631112069,43.6956326125,37711.0,185,POINT (-79.26311120691599 43.695632612456)
185,East Scarborough Storefront,East Scarborough Storefront is a partnership of community groups and social service agencies working together to create a thriving community in East Scarborough.,,http://www.thestorefront.org,Community,4040 Lawrence Avenue East,329017.575,4847159.955,-79.199011833,43.766003524,37712.0,186,POINT (-79.199011833 43.766003524)
186,Zen Japanese Restaurant,"Established in 1983, Zen Japanese Restaurant is aiming for the preservation of the traditional culture of Japanese cuisine, which gives the best impression of the cuisine to the patron while being loved by them.",,http://www.zenjapaneserestaurant.com/,Business,2803 Eglinton Avenue East,325349.124,4843916.841,-79.2447022987,43.7369302048,37687.0,187,POINT (-79.2447022986715 43.7369302047661)
187,Ghareeb Nawaz,"Ghareeb Nawas is a Hala restaurant known for the ""Best Biryani in Town"".",,,Business,1071 Danforth Road,325180.521,4843746.869,-79.2468018217,43.7354048485,37688.0,188,POINT (-79.246801821746 43.7354048484559)
188,Zena's Diner,"Zena's Diner offers Canadian and Middle Eastern Food, available for dine-in and take-out. They also offer daily lunch specials, banquet and catering service,",,,Business,2693 Eglinton Avenue East,324945.048,4843826.489,-79.2497220697,43.7361279421,37689.0,189,POINT (-79.24972206971709 43.7361279420518)
189,Tara Inn,"Tara Inn is an Irish Pub offers traditional Irish breakfast, Irish pub food, and jumbo wings in variety of falvours.",,,Business,2609 Eglinton Avenue East,324708.301,4843723.726,-79.2526647342,43.7352093197,37690.0,190,POINT (-79.25266473418949 43.7352093196553)
190,Sinopino Chinese Restaurant & Take-Out,Sinipino is a take-out restaurant that is known for chili chicken and spicy shrimp.,,,Business,790 Kennedy Road,323406.275,4843463.552,-79.268834164,43.732892446,37691.0,191,POINT (-79.268834164 43.732892446)
191,Chung Moi,"Chung Moi is family-owned, offering Chinese, Indian and Pakistani cuisine.",,,Business,2412 Eglinton Avenue East,323354.662,4843413.242,-79.2694797875,43.7324495035,37692.0,192,POINT (-79.26947978746161 43.7324495035427)
192,Armenian Kitchen,"Armenian Kitchen offers authentic Middle Eastern cuisine. They offer chawarma plate, shish kebab and vegetable combo plates. Take-out is also available.",,http://www.armenian-kitchen.com/contact.html,Business,1646 Victoria Park Avenue,320425.307,4843237.117,-79.3058484915,43.7309311107,37693.0,193,POINT (-79.305848491514 43.7309311106831)
193,Smith Brothers Steak House,Smith Bros. Steakhouse Tavern is based on one very simple idea??going out for a great steak & a couple of beers shouldn?t drain your wallet?,https://www.facebook.com/SmithBrothersSteakhouse,http://www.smithbrotherssteakhouse.com/,Business,880 Warden Avenue,321817.604,4842999.356,-79.2885729863,43.7287606635,37694.0,194,POINT (-79.2885729862537 43.7287606634748)
194,Pho Saigon,Pho Saigon offers a classic Vietnamese cuisine.,,,Business,1921 Eglinton Avenue East,321852.608,4842805.223,-79.2881446221,43.7270124417,37695.0,195,POINT (-79.288144622076 43.7270124416718)
195,Railee's Diner,Railee's feature open kitchen and photographs of the area from when the land served as a munition facturing compound during WWII. It serves all day breakfast and daily specials,,,Business,133 Manville Road,322292.189,4842782.806,-79.2826889236,43.7268005929,37696.0,196,POINT (-79.2826889235543 43.726800592874)
196,Wok With You,Wok With You offers Chinese food. It also offers Halal and extensive veggie menu.,,,Business,789 Warden Avenue,322020.738,4842705.277,-79.286057631,43.726100372,37698.0,197,POINT (-79.28605763100001 43.726100372)
197,Working Dog Saloon,The Working Dog Saloon is a place where friends meet. You can meet new friends. Come enjoy a good meal and cold beer. Try a glass of Signature Dog House Wines. Made especially for The Working Dog Saloon. Or try a Pint of Dogger Lager. Portion of sales fr,https://www.facebook.com/WorkingDogSaloon,http://workingdogsaloon.com/,Business,3676 St Clair Avenue East,324938.979,4841971.466,-79.2498659684,43.719430557,37699.0,198,POINT (-79.2498659684391 43.7194305569755)
198,Pak Centre Halal Restaurant,Pak Centre is a premier destination for fine Indian-Pakistani food.,https://www.facebook.com/PakCentre,http://www.pakcentre.ca/,Business,2683 Lawrence Avenue East,323992.064,4845553.814,-79.2614911493,43.7517014327,37674.0,199,POINT (-79.2614911492964 43.7517014326759)
199,Al Madina Halal Pizza and Bakery,"Open 7 days a week, Al Madina offers halal toppings and wings, delivery service and combo deals.",,http://almadinapizza.com/,Business,2683 Lawrence Avenue East,324006.064,4845567.814,-79.261313605,43.751818487,37675.0,200,POINT (-79.261313605 43.751818487)
200,"Ajmir Halal Pizza, Wings, and Kebab House","Ajmir offers halal pizza, wings, and some Afghan food such as kebab and rice platter.",,,Business,3879 Lawrence Avenue East,328212.82,4846818.054,-79.209022113,43.762951712,37676.0,201,POINT (-79.209022113 43.762951712)
201,Ahmutha Surabi,Ahmutha Surabi is a Tamil take-out and catering place that offers a variety of hoppers.,,,Business,2847 Lawrence Avenue East,324569.586,4845737.392,-79.254309883,43.753330185,37677.0,202,POINT (-79.254309883 43.753330185)
202,Halal Pizza Time,"Halal Pizza Time offers combo specials. Besides pizzas, they are also known for kebab and naan.",,,Business,561 Markham Road,326984.77,4846302.647,-79.224295373,43.758349845,37678.0,203,POINT (-79.224295373 43.758349845)
203,Lucky Chinese Restaurant,Lucky is a Hakka style Chinese Restaurant.,,,Business,3770-3774 Lawrence Avenue East,327793.408,4846765.028,-79.2142365413,43.7624960411,38803.0,204,POINT (-79.2142365412827 43.7624960410603)
204,Sooriyan Restaurant Takeout & Catering,Sooriyan is a Tamil take-out and catring joint.,,,Business,3863 Lawrence Avenue East,328176.156,4846804.472,-79.209478056,43.762830605,37680.0,205,POINT (-79.20947805599999 43.762830605)
205,Shalimar Sweets & Samosa,Shalimar offers halal Pakistani snacks and sweets along with kebabs and rice dishes.,,,Business,3867 Lawrence Avenue East,328186.099,4846808.891,-79.209354375,43.762870071,37681.0,206,POINT (-79.209354375 43.762870071)
206,West Hill Wine Bar,"West Hill Wine Bar offers local, organic and gluten-free menu. They are owned and operated by Top Chef Canada competitor Chris Kanka.",https://www.facebook.com/TheWestHillWineBar,http://www.westhillwinebar.com/home,Business,4637 Kingston Road,330768.856,4848120.283,-79.1772173711,43.774597225,37682.0,207,POINT (-79.1772173710842 43.7745972249829)
207,Ted's Restaurant,"Ted's been around since 1954, ""a great place to meet your friends"".",,,Business,404 Old Kingston Road,331419.934,4849228.639,-79.1690751674,43.7845504277,37683.0,208,POINT (-79.16907516738441 43.784550427661)
208,Black Dog Pub,Black Dog Pub is a winner of over 70 awards since their opening in 1993. They offer fine beer selection. Also available for  brunch and private functions.,,http://blackdogpub.tv/,Business,87 Island Road,333814.106,4850697.401,-79.1392504476,43.7976813362,37684.0,209,POINT (-79.1392504476494 43.7976813362256)
209,Twice as Nice,Twice as Nice is a Caribbean restaurant offering classic Caribbean dishes.,,,Business,4190 Kingston Road,329102.556,4846451.077,-79.1979914909,43.7596287739,37685.0,210,POINT (-79.19799149091391 43.7596287739497)
210,Anjappar Chettinad,Anjappar Chettinad Restaurant Ã¿is a franchises of South Indian Anjappar Restaurant Group in India with locations worldwide that brings the distinctive flavors of the famed South Indian Chettinad cuisine to sababh.,https://www.facebook.com/pages/Anjappar-Chettinad-Restaurant/137951832938573?sk=wall,http://www.anjapparcanada.com/,Business,3090 Eglinton Avenue East,326781.1,4844457.93,-79.2269029968,43.7417597917,37686.0,211,POINT (-79.22690299677519 43.7417597916819)
211,Pili Pili,Pili Pili is a takeout driven destination offering Tanzanian cuisine.,https://www.facebook.com/PiliPiliToronto,,Business,1960 Lawrence Avenue East,321034.757,4844797.323,-79.2982363212,43.7449621858,37663.0,212,POINT (-79.2982363212486 43.7449621857572)
212,Makkalchon,"Makkalchon is a Korean restaurant that specializes in Korean vegetable wraps, Bibimbap, and BBQ meat. They insist on only using natural and organic ingredients.",,http://makkalchon.com/,Business,1979 Lawrence Avenue East,321152.499,4844768.291,-79.2967752907,43.7446982806,37664.0,213,POINT (-79.2967752907464 43.7446982806021)
213,Pho Metro Asian Cuisine,Pho Metro offers Vietnamese cuisine in Wexford.,https://www.facebook.com/phometro.son,http://www.phometro.com/menu.html,Business,2057 Lawrence Avenue East,321357.002,4844815.966,-79.294231509,43.745114275,37665.0,214,POINT (-79.294231509 43.745114275)
214,Diana's Seafood Oyster Bar,Diana?s Oyster Bar & Grill is the Fine Dining Seafood Restaurant with best and fresh selection of seafood dishes.,https://www.facebook.com/DianasOysterBar,http://dianasoysterbar.com/,Business,2105 Lawrence Avenue East,321571.951,4844886.431,-79.2915635954,43.7457523103,37666.0,215,POINT (-79.291563595383 43.7457523103218)
215,The Rice Kitchen,The Rice Kitchen is a Chinese take-out and delivery offering a vast menu.,,http://thericekitchen.weebly.com/,Business,2131 Lawrence Avenue East,321834.137,4844928.772,-79.2883067698,43.7461274292,37667.0,216,POINT (-79.2883067698409 43.7461274292384)
216,Spice is Rite,"Spice is Rite offers Jamaican and Caribbean food for lunch and dinner. They also offer take-out, delivery and catering.",https://www.facebook.com/pages/SPICE-is-RITE/207876646018627,,Business,2179 Lawrence Avenue East,322194.413,4845060.575,-79.2838290831,43.7473055456,37668.0,217,POINT (-79.28382908314499 43.7473055456153)
217,Harry's Drive-in,Harry's is a burger and soulaki diner that's been in business since 1954.,,,Business,2280 Lawrence Avenue East,322721.749,4845291.947,-79.2772738222,43.7493756294,37669.0,218,POINT (-79.27727382222839 43.7493756293827)
218,Jesse Jr.,"Jesse Jr. specialize in delicious and reasonably priced Filipino cuisine, including house specialties and other customer favorites. Their cuisine entrees are served in a relaxed and welcoming setting.",,http://www.jessejr.net/,Business,1060 Kennedy Road,322881.897,4845255.622,-79.275283287,43.749036189,37670.0,219,POINT (-79.27528328699999 43.749036189)
219,Spicy Dragon,"Spicy Dragon specialize in Indian Hakka, Cantonese, and Szechan Style food. They offer dine-in, take-out and catering services. Halal dishes are available on request.",,http://www.spicydragonrestaurant.ca/,Business,1060 Kennedy Road,322867.897,4845241.622,-79.2754607962,43.7489191182,37671.0,220,POINT (-79.27546079617819 43.7489191182236)
220,Taste of Newfoundland Fish & Chips,"Taste of Newfoundland has everything is made fresh and  famous for their 'Fries, Dressing & Gravy'. They serve lunch, dinner and coffee in traditional American and British. Take-out is also available.",https://www.facebook.com/TasteOfNewfoundland,,Business,2655 Lawrence Avenue East,323884.153,4845497.874,-79.262833115,43.7512006335,37672.0,221,POINT (-79.2628331149556 43.7512006335033)
221,Challal Bakery,"Located in Wexford Heights BIA, Challal Bakery serves ""fresh pies B4 your eyes"" with spinach, zaatar, cheese and more.",,,Business,1960 Lawrence Avenue East,321020.757,4844811.323,-79.298406513,43.745079905,37653.0,222,POINT (-79.298406513 43.745079905)
222,Chris Bread Bakery,"Chris Bread is a bakery and catering company that specializes in sweet and savory prepared foods, signature bread, Sri Lankan and Indian foods. They also offer daily specials.",,,Business,2617 Eglinton Avenue East,324724.502,4843759.601,-79.2524623094,43.7355318031,37654.0,223,POINT (-79.2524623093874 43.7355318030512)
223,Patisserie Royale,"Patisserie Royale is your magic carpet to the delectable baklava and other desserts of the Middle East. From the tables of kings and princes to your table at home, they offer only the tastiest treats made from traditional recipes handed down through gene",https://www.twitter.com/PatisserieRoyal,http://www.patisserieroyale.com/?,Business,1801 Lawrence Avenue East,320472.786,4844524.495,-79.305221816,43.7425184517,37655.0,224,POINT (-79.3052218160333 43.7425184516661)
224,Curry & Roti,"The CURRY & ROTI  Restaurant is three generations strong since 1973, following a tradition of serving food in the healthiest environment and with utmost care. Rich in tradition and in flavours, the restaurant offers healthy eats with all natural ingredie",https://www.facebook.com/curryandrotirestaurant,http://www.curryandroti.com/home,Business,1732 Lawrence Avenue East,320196.918,4844540.562,-79.3086464074,43.742668857,37656.0,225,POINT (-79.30864640740511 43.7426688569831)
225,Naan & Kabob,"Naan & Kabob is a family run restaurant that opened in the summer of 2011. After frequenting this location for years before buying the restaurant, the restaurant went for sale and the family made a bold decision to take their traditional cooking skills t",https://www.facebook.com/pages/Naan-Kabob/370318106314162,,Business,1801 Lawrence Avenue East,320486.786,4844538.495,-79.305044379,43.742635569,37657.0,226,POINT (-79.30504437899999 43.742635569)
226,Pizza Land Halal,Pizzaland Halal is a growing restaurant and has been serving the Toronto and its surrounding Muslim communities for over 9 years. Their proper preparation according to the Halal practice has always remained a greater part of their service and dedication.,https://www.facebook.com/PizzalandHalal,http://www.pizzalandhalal.com/,Business,1801 Lawrence Avenue East,320458.786,4844538.495,-79.305392016,43.74263616,37658.0,227,POINT (-79.305392016 43.74263616)
227,Co-China Manilla,Co-China Manila is a family restaurant that offers Filipino and Chinese cuisine.,,,Business,1840-1848 Lawrence Avenue East,320535.327,4844644.225,-79.3044418574,43.7435948439,38801.0,228,POINT (-79.30444185740519 43.7435948439278)
228,Nasib's Shawarma & Falafel,Nasib's has been a family owned and operated restaurant since 1962. It strives to provide best quality food and service. Their food is homemade and carefully prepared to perfection. Their toppings for wraps and sandwiches are changed daily to make sure e,,http://nasibsshawarma.com/,Business,1867 Lawrence Avenue East,320716.982,4844620.163,-79.302183922,43.743365792,114631.0,229,POINT (-79.302183922 43.743365792)
229,Patna Kabab House,There is no better place than Patna Kabab House to enjoy the centuries old traditional dish like Bihari Kabab and Nihari. They  cook the Bihari Kabab in traditional way and use standard quality ingredients..,,http://patnakababhouse.com/home2.aspx,Business,1885 Lawrence Avenue East,320762.528,4844652.656,-79.3016206788,43.7436658949,37661.0,230,POINT (-79.30162067875069 43.7436658948661)
230,Taste of Beirut,"Taste of Beirut is a Middle Eastern restaurant offering halal shawarma, falafel, and shisk tawook.",,,Business,1960 Lawrence Avenue East,321048.757,4844811.323,-79.298058859,43.745079293,37662.0,231,POINT (-79.29805885899999 43.745079293)
231,Mimico Creek Bridge,"Located at the mouth of Mimico Creek, this bridge connects the two Humber Bay parks. With its white-tilted arch and the water beneath, it is a great place to enjoy nature and take photographs. The design of the bridge echoes the Humber Bay Bridge nearby.",,,Architecture,"-79.480353,43.621234",306369.717,4831033.293,-79.480353,43.621234,116473.0,232,POINT (-79.48035299999999 43.621234)
232,Lambton Canadian Pacific Railway Bridge,"This is the Canadian Pacific Railway main line crossing of the Humber River. It is 171 metres in length and was completed in 1874. The bridge began at the entrance to the Lambton Yards. The Lambton Yards opened in 1912 and was located north of Dundas, ea",,,Architecture,"-79.512277,43.662689",303793.854,4835638.649,-79.512277,43.662689,116474.0,233,POINT (-79.512277 43.662689)
233,Guelph Radial Line Bridge Tower Footings,"Only the footings for the steel towers remain of this bridge. It was part of the old Guelph Radial Line, an electric suburban rail line between Guelph and Toronto that operated from 1917 to 1931. The original bridge was completed in 1917 and was expanded",,,Architecture,"-79.511785,43.662352",303833.528,4835601.203,-79.511785,43.662352,116475.0,234,POINT (-79.511785 43.662352)
234,Dundas Street Bridge,This bridge was built in 1929 and is 195 metres in length and 18.29 metres wide. It was widened in 2009 for bicycle lanes.,,,Architecture,"-79.505289,43.662879",304357.448,4835659.673,-79.505289,43.662879,116476.0,235,POINT (-79.505289 43.662879)
235,Lambton Mills Bridge Abutments,There were a series of bridges on Lambton Mills' site between the years of 1811 and 1955. Here you can find traces of an abutment that once supported those bridges.,,,Architecture,"-79.503130,43.654535",304531.556,4834732.696,-79.50313,43.654535,116477.0,236,POINT (-79.50313 43.654535)
236,Old Mill Bridge,"The Old Mill Bridge was erected in 1916 during World War I to replace a wooden bridge that was constantly damaged by the spring ice flows. Coats of arms can be found on its sides, one representing the Municipality of Etobicoke and the other representing",,,Architecture,"-79.491232,43.651455",305491.397,4834390.541,-79.491232,43.651455,116478.0,237,POINT (-79.491232 43.651455)
237,Old Mill Subway Station Bridge,The Old Mill Subway Station Bridge was completed in 1968. It was built with concrete and is unique as its sole function is to serve as a subway station and line.,,,Architecture,"-79.491640,43.648877",305458.496,4834104.147,-79.49164,43.648877,116479.0,238,POINT (-79.49164 43.648877)
238,Bloor Street Bridge,"Built in 1924 in an Art Deco style, the Bloor Street Bridge spans the valley walls of the Lower Humber. At the time of its completion it was known as the Bloor Street Viaduct. It is one of the few bridges that survived Hurricane Hazel.",,,Architecture,"-79.491983,43.648474",305430.83,4834059.373,-79.491983,43.648474,116480.0,239,POINT (-79.491983 43.648474)
239,Humber River Bicycle-Pedestrian Bridge,"Located at the mouth of the Humber River, this 130-metre long bridge, completed in 1996, is the river's landmark. The double-tubular arches with a steel cross-bracing structure connects to the riverÂ¿s cultural history with a design based on the thunderbi",,,Architecture,"-79.471255,43.631889",307103.649,4832217.182,-79.471255,43.631889,116481.0,240,POINT (-79.471255 43.631889)
240,Etobicoke Civic Centre,"The Etobicoke Civic Centre opened in 1958. Before the amalgamation of Etobicoke into the City of Toronto, the building was the Etobicoke City Hall, housing the municipal government. The building now functions as a meeting place for the Etobicoke York Com",,http://www1.toronto.ca/wps/portal/contentonly?vgnextoid=5e97c671dc412410VgnVCM10000071d60f89RCRD&vgnextchannel=68f2590dd3412410VgnVCM10000071d60f89RCRD,Architecture,399 The West Mall,299503.625,4833538.964,-79.5654560752,43.6437806,116482.0,241,POINT (-79.56545607523699 43.6437805999956)
241,Mimico Square,"Mimico-by-the-Lake BIA offers annual events at Mimico Square including Sunday Summer Jams, Mimico Pumpkin Parade and a tree lighting among many others.",,,Community,"-79.488948,43.613840",305676.133,4830211.745,-79.488948,43.61384,116483.0,242,POINT (-79.48894799999999 43.61384)
242,Jean Augustine Centre for Young Women's Empowerment,"This centre offers support to young women by providing life-skill training programs such as cooking, sewing, gardening and certified one-on-one personal life coaching. The centre was named after Jean Augustine, a community advocate, the first African Can",,http://pactprogram.ca/jean-augustine-centre-partners/,Community,"-79.4985934344,43.6189374031",304897.581,4830778.002,-79.4985934344,43.6189374031,116672.0,243,POINT (-79.49859343439999 43.6189374031)
243,Placebo Space,"A live entertainment venue, co-working, event space and art bar.",,http://www.placebospace.ca/,Hot Eats,2877 Lake Shore Blvd W,304511.881,4828772.29,-79.5033749967,43.6008921564,116644.0,244,POINT (-79.5033749966581 43.6008921564488)
244,Posticino Ristorante,Combining classic Italian dishes with a modern twist; created with only the finest ingredients.,,http://posticino.com/,Hot Eats,755 The Queensway,304492.032,4831553.63,-79.5036219307,43.6259274737,116645.0,245,POINT (-79.5036219307069 43.6259274736749)
245,Prince Japanese Steakhouse,Offers authentic Japanese and Teppanyaki fine dining experience.,,http://www.spoonandfork.ca/prince-steakhouse/welcome/,Hot Eats,5555 Eglinton Ave W,296432.104,4834237.696,-79.6035400499,43.6500416063,116653.0,246,POINT (-79.6035400499327 43.6500416063359)
246,Queensway Fish and Chips,The original owners are proud to continue serving fish and chips on The Queensway for over 37 years.,,http://queenswayfishandchips.com/,Hot Eats,1236 The Queensway,302797.198,4831092.796,-79.5246220322,43.6217769882,116646.0,247,POINT (-79.5246220321804 43.6217769882184)
247,Ranu Thai Food,"Providing the best Thai food experience with fresh, quality and authentic ingredients.",,http://ranuthai.ca/,Hot Eats,3308 Lake Shore Blvd W,302846.115,4828334.528,-79.5240071657,43.596949704,116647.0,248,POINT (-79.5240071656975 43.5969497039666)
248,Refinery Public House,"Come and enjoy some beer, wine, spirits and a great tasting menu. Trivia nights on Wednesday and live music Fridays, Saturdays, and Sundays.",,http://refinerypublichouse.com/,Hot Eats,"-79.5091136615,43.5996993802",304048.32,4828640.759,-79.5091136615,43.5996993802,116679.0,249,POINT (-79.5091136615 43.5996993802)
249,Richview Bakery & Bistro,An amazing Italian style bistro with a daily hot buffet table.,https://www.facebook.com/pages/Richview-Bakery/180264432018881,,Hot Eats,250 Wincott Dr,301012.373,4837528.657,-79.5467827384,43.6797007879,116649.0,250,POINT (-79.546782738432 43.679700787862)
250,Royal Meats Barbeque,Choose fresh meats from the butcher counter and have it grilled before your eyes.,,http://royalmeats.ca/,Hot Eats,710 Kipling Ave,302446.441,4831516.58,-79.5289697965,43.6255906965,116650.0,251,POINT (-79.5289697965183 43.6255906964544)
251,SanRemo Bakery & Cafe,"An Italian bakery proving their passion for food, coffee and exceptional service since 1969.",,http://www.sanremobakery.com/,Hot Eats,374 Royal York Rd,304807.298,4830735.525,-79.4997153387,43.6185636422,116654.0,252,POINT (-79.4997153386913 43.6185636421993)
252,Santa Monica Trattoria,Delectable Mediterranean- Italian trattoria with an eclectic contemporary decor.,,http://www.santamonicarestaurant.ca/,Hot Eats,"-79.498421467,43.6275471275",304911.449,4831734.509,-79.498421467,43.6275471275,116684.0,253,POINT (-79.498421467 43.6275471275)
253,Seconds Kitchen at Rabba,Come on in to Rabba and dine-in or take-out our fantastic fresh salads and sandwiches- perfect for lunch!,,,Hot Eats,4201 Bloor St W,299710.826,4832593.479,-79.5628784905,43.6352714171,116512.0,254,POINT (-79.5628784905492 43.6352714171431)
254,South Shore Bar & Grill,Great pub and grill in Etobicoke serving pub fare and snacks.,,,Hot Eats,264 Brown's Line,301216.02,4828517.129,-79.544197693,43.598587293,116513.0,255,POINT (-79.5441976929685 43.5985872929701)
255,Spoon and Fork - Eglinton,"An inspiring Japanese and Thai restaurant, combining an eclectic upscale atmosphere with excellent food and efficient service.",,http://www.spoonandfork.ca/,Hot Eats,5555 Eglinton Ave W,296432.104,4834237.696,-79.6035400499,43.6500416063,116652.0,256,POINT (-79.6035400499327 43.6500416063359)
256,Spoon and Fork - The Queensway,"An inspiring Japanese and Thai restaurant, combining an eclectic upscale atmosphere with excellent food and efficient service.",,http://www.spoonandfork.ca/spoon-and-fork-queensway/welcome/,Hot Eats,1233 The Queensway,302784.349,4831030.774,-79.5247810332,43.621218681,116514.0,257,POINT (-79.52478103321739 43.6212186809983)
257,Squire & Firkin Pub,"Hang out with friends and family for brunch, lunch and dinner or any sporting event with great food.",,http://www.firkinpubs.com/thesquireandfirkin/,Hot Eats,3335 Bloor St W,303066.877,4833665.957,-79.52128748,43.6449390122,116515.0,258,POINT (-79.5212874800325 43.6449390122265)
258,St. James Gate Irish Pub & Restaurant,Irish alehouse and restaurant featuring fine foods and a friendly social atosphere.,,http://www.sjgtoronto.ca/,Hot Eats,"-79.5335871749,43.6438886886",302074.31,4833550.518,-79.5335871749,43.6438886886,116685.0,259,POINT (-79.53358717490001 43.6438886886)
259,Stratosphere Restaurant & Lounge,"Family-friendly gastro pub featuring homemade fresh food in a comfortable, clean and fun atmosphere.",,,Hot Eats,2956 Bloor St W,304098.835,4834036.86,-79.5084969451,43.6482798183,116517.0,260,POINT (-79.5084969450773 43.6482798182599)
260,Sweet Olenka's - Jutland,"Proudly serving handcrafted single batch ice cream, exquisite artisanal chocolate, artsy delightful cakes, confections of all sorts and famous cakesters.",https://www.facebook.com/pages/Sweet-Olenkas/158742774172310?fref=ts,,Hot Eats,23 Jutland Rd,302690.42,4831621.568,-79.5259469827,43.6265363911,116518.0,261,POINT (-79.5259469826665 43.6265363911425)
261,Sweet Olenka's - Lakeshore,"Handcrafted single batch ice cream, exquisite artisanal chocolate, artsy delightful cakes, confections of all sorts and famous cakesters.",https://www.facebook.com/pages/Sweet-Olenkas/158742774172310?fref=ts,,Hot Eats,"-79.5002810015,43.6021418607",304761.385,4828912.086,-79.5002810015,43.6021418607,116686.0,262,POINT (-79.5002810015 43.6021418607)
262,Tartistry,"A butter tart cafÃ© with live Jazz music on Saturdays, furnished with art and antiques for sale.",,http://www.tartistry.ca/,Hot Eats,1252 The Queensway,302752.994,4831073.236,-79.5251696815,43.6216008074,116520.0,263,POINT (-79.5251696815349 43.6216008074322)
263,Tessie McDaids Irish Pub,"A great friendly place, where everyone who comes in leaves, with a good impression.",https://www.facebook.com/tessiemcdaids,,Hot Eats,5078 Dundas St W,302190.363,4833728.439,-79.532152741,43.6454990884,116521.0,264,POINT (-79.5321527409556 43.6454990884131)
264,The Crooked Cue,A Kingsway neighbourhood tradition for the last 23 years features a newly renovated restaurant area with a retractable roof.,,http://www.crookedcue.ca/,Hot Eats,3056 Bloor St W,303722.709,4833912.326,-79.513155651,43.647149629,116522.0,265,POINT (-79.51315565100001 43.647149629)
265,The Irish Shebeen Pub,"Delicious pub fare, a great selection of on tap beers and weekly live entertainment Â¿ youÂ¿re sure to have a great time!",,http://www.irishshebeen.com/,Hot Eats,5555 Eglinton Ave W,296432.104,4834237.696,-79.6035400499,43.6500416063,116523.0,266,POINT (-79.6035400499327 43.6500416063359)
266,The Kebab House,"Great Middle Eastern cuisine including fast food, kebab and shawarma.",,,Hot Eats,2977 Lake Shore Blvd W,304231.438,4828694.164,-79.5068486721,43.6001887661,116524.0,267,POINT (-79.5068486721279 43.6001887660996)
267,The Mix Bake Shop,The Mix Bake Shop offers fresh and delicious cakes made from only the finest ingredients that are wholesome and not too sweet.,,http://www.themixbakeshop.com/,Hot Eats,374 Brown's Line,301149.109,4828729.096,-79.5450276827,43.6004951912,116525.0,268,POINT (-79.5450276826808 43.600495191201)
268,The Monk's Kettle,A craft beer gastro pub featuring local breweries and fresh fare.,,http://themonkskettle.com/,Hot Eats,3073 Bloor St W,303674.197,4833850.541,-79.513760088,43.6466019639,116526.0,269,POINT (-79.5137600879571 43.6466019639104)
269,The Pie Commission,"Proud to serve handmade, gourmet and individual serving sized savoury pies.",,http://piecommission.com/,Hot Eats,935 The Queensway,303787.514,4831313.774,-79.5123516912,43.6237678426,116527.0,270,POINT (-79.5123516911769 43.6237678426128)
270,The Red Cardinal Tavern,"Looking for a traditional English pub? From brunch to late night dinner munchies and drinks, The Red Cardinal Tavern has something for everyone.",,http://www.theredcardinaltavern.com/,Hot Eats,555 Burnhamthorpe Rd,299296.323,4833635.96,-79.5680266542,43.6446521816,116528.0,271,POINT (-79.56802665420609 43.6446521815539)
271,The Wokker,"Specializes in Chinese cuisine, serving Cantonese and Szechuan food and crowd-pleasing dim sum since 1987.",,http://www.thewokker.com/,Hot Eats,5555 Eglinton Ave W,296432.104,4834237.696,-79.6035400499,43.6500416063,116529.0,272,POINT (-79.6035400499327 43.6500416063359)
272,Thrive Organic Kitchen & Cafe,"Promoting healthy and vibrant lifestyles by using all natural, pur and organic whole food ingredients.",,http://www.thriveorganic.ca/,Hot Eats,3473 Lake Shore Blvd W,302329.04,4828107.386,-79.5304104331,43.5949034235,116530.0,273,POINT (-79.5304104330943 43.5949034234552)
273,Thyme 4 Pizza & Pasta,"Authentic Italian inspired pizza and pasta dishes, also offering a free delivery service!",,http://www.thyme4.ca,Hot Eats,890 The Queensway,303862.064,4831411.11,-79.5114280892,43.6246440665,116531.0,274,POINT (-79.5114280892343 43.6246440664714)
274,Tim Hortons - Eglinton,"Serving coffee since 1964. The chain's focus is on a top quality, always fresh product, value, great service and community leadership.",,http://timhortons.com/,Hot Eats,5555 Eglinton Ave W,296432.104,4834237.696,-79.6035400499,43.6500416063,116532.0,275,POINT (-79.6035400499327 43.6500416063359)
275,Timothy's Pub,Etobicoke's friendly meeting place and a live entertainment destination with daily food and drink specials.,,http://timothyspub.ca/,Hot Eats,"-79.5448879002,43.6001357448",301160.108,4828690.111,-79.5448879002,43.6001357448,116687.0,276,POINT (-79.5448879002 43.6001357448)
276,Two Cupcakes and a Tart Bake Shoppe & Deli,"Come in for a selection of fresh baked bread, sweets and pastries, and an array of deli meats and cheeses.",,http://twocupcakesandatart.ca/,Hot Eats,1500 Royal York Rd,302217.101,4838853.503,-79.5318478771,43.6916310475,116534.0,277,POINT (-79.5318478770772 43.6916310475357)
277,ViBo Restaurant,Vibo has been a staple in the Kingsway area for more than 40 years. Enjoy authentic Italian flavours and great service!,,http://www.vibo.ca/,Hot Eats,2995 Bloor St W,303981.434,4833941.351,-79.5099520311,43.6474199009,116535.0,278,POINT (-79.50995203106071 43.6474199009086)
278,West City Snack Bar,"Serving a variety of lunch and dinner favourites, from various cuisines with an emphasis on local produce.",,http://westcitysnackbar.com/,Hot Eats,430 Horner Ave,301800.763,4829105.689,-79.536958182,43.6038877595,116536.0,279,POINT (-79.5369581819739 43.6038877595134)
279,Wingporium,"Serving fresh chicken wings, fine European beer and afternoon domestic beer specials.",,http://wingporium.ca/,Hot Eats,1000 Islington Ave,303307.506,4832005.985,-79.518297915,43.629989401,116537.0,280,POINT (-79.51829791500001 43.629989401)
280,Wize Guyz Pizza,Great Italian restaurant offering the best pizza in Etobicoke!,,http://wizeguyz.com/,Hot Eats,934 The Queensway,303809.225,4831392.533,-79.5120828074,43.6244767953,116538.0,281,POINT (-79.51208280737499 43.6244767952688)
281,Albion Library,One of 100 Toronto Public Libraries across the city.,,http://www.torontopubliclibrary.ca/detail.jsp?Entt=RDMLIB04&R=LIB04,Library,1515 Albion Rd,298004.688,4844214.531,-79.5841715156,43.7398614595,116539.0,282,POINT (-79.58417151560231 43.7398614595396)
282,Alderwood Library,One of 100 Toronto Public Libraries across the city.,,http://www.torontopubliclibrary.ca/detail.jsp?Entt=RDMLIB020&R=LIB020,Library,2 Orianna Dr,300961.238,4828885.845,-79.5473557747,43.6019052149,116540.0,283,POINT (-79.5473557747486 43.6019052148547)
283,Black Creek Library,One of 100 Toronto Public Libraries across the city.,,http://www.torontopubliclibrary.ca/detail.jsp?Entt=RDMLIB027&R=LIB027,Library,1700 Wilson Ave,303774.834,4842112.508,-79.5125311905,43.7209712989,116541.0,284,POINT (-79.5125311904614 43.7209712988873)
284,Brentwood Library,One of 100 Toronto Public Libraries across the city.,,http://www.torontopubliclibrary.ca/detail.jsp?Entt=RDMLIB07&R=LIB07,Library,36 Brentwood Rd N,303629.77,4833942.913,-79.5143109974,43.6474333611,116598.0,285,POINT (-79.514310997354 43.6474333610617)
285,Eatonville Library,One of 100 Toronto Public Libraries across the city.,,http://www.torontopubliclibrary.ca/detail.jsp?Entt=RDMLIB041&R=LIB041,Library,430 Burnhamthorpe Rd,299997.385,4833800.666,-79.5593382617,43.6461396036,116599.0,286,POINT (-79.55933826165079 43.6461396035608)
286,Elmbrook Park Library,One of 100 Toronto Public Libraries across the city.,,http://www.torontopubliclibrary.ca/detail.jsp?Entt=RDMLIB043&R=LIB043,Library,2 Elmbrook Cres,298015.896,4835335.697,-79.583916953,43.659932807,116600.0,287,POINT (-79.583916953 43.659932807)
287,Humber Bay Library,One of 100 Toronto Public Libraries across the city.,,http://www.torontopubliclibrary.ca/detail.jsp?Entt=RDMLIB052&R=LIB052,Library,200 Park Lawn Rd,305490.191,4832042.061,-79.4912526733,43.6303240163,116601.0,288,POINT (-79.4912526732716 43.6303240163412)
288,Humber Summit Library,One of 100 Toronto Public Libraries across the city.,,http://www.torontopubliclibrary.ca/detail.jsp?Entt=RDMLIB055&R=LIB055,Library,2990 Islington Ave,299018.998,4846344.929,-79.571599292,43.75903803,116602.0,289,POINT (-79.571599292 43.75903803)
289,Jane/Dundas Library,One of 100 Toronto Public Libraries across the city.,,http://www.torontopubliclibrary.ca/detail.jsp?Entt=RDMLIB055&R=LIB055,Library,620 Jane St,305472.241,4835946.894,-79.4914703074,43.6654731911,116603.0,290,POINT (-79.49147030740809 43.6654731911358)
290,Long Branch Library,One of 100 Toronto Public Libraries across the city.,,http://www.torontopubliclibrary.ca/detail.jsp?Entt=RDMLIB061&R=LIB061,Library,3500 Lake Shore Blvd W,302255.178,4828153.066,-79.5313254564,43.5953143642,116604.0,291,POINT (-79.53132545640401 43.5953143641675)
291,Mimico Centennial Library,One of 100 Toronto Public Libraries across the city.,,http://www.torontopubliclibrary.ca/detail.jsp?Entt=RDMLIB065&R=LIB065,Library,47 Station Rd,305289.183,4830317.593,-79.4937450535,43.6148016189,116605.0,292,POINT (-79.4937450534908 43.6148016189005)
292,Mount Dennis Library,One of 100 Toronto Public Libraries across the city.,,http://www.torontopubliclibrary.ca/detail.jsp?Entt=RDMLIB067&R=LIB067,Library,1123 Weston Rd,305733.723,4838298.419,-79.4882246775,43.6866398039,116606.0,293,POINT (-79.4882246775262 43.6866398038848)
293,New Toronto Library,One of 100 Toronto Public Libraries across the city.,,http://www.torontopubliclibrary.ca/detail.jsp?Entt=RDMLIB069&R=LIB069,Library,110 Eleventh St,303998.553,4828589.319,-79.5097333483,43.5992448952,116607.0,294,POINT (-79.5097333483147 43.5992448952366)
294,Northen Elms Library,One of 100 Toronto Public Libraries across the city.,,http://www.torontopubliclibrary.ca/detail.jsp?Entt=RDMLIB070&R=LIB070,Library,123 Rexdale Blvd,299526.71,4841049.437,-79.5652441779,43.7113836679,116608.0,295,POINT (-79.5652441778759 43.7113836679229)
295,Rexdale Library,One of 100 Toronto Public Libraries across the city.,,http://www.torontopubliclibrary.ca/detail.jsp?Entt=RDMLIB079&R=LIB079,Library,2243 Kipling Ave,298887.071,4842691.609,-79.5731999755,43.7261607873,116609.0,296,POINT (-79.5731999754978 43.7261607872914)
296,Richview Library,One of 100 Toronto Public Libraries across the city.,,http://www.torontopubliclibrary.ca/detail.jsp?Entt=RDMLIB016&R=LIB016,Library,1806 Islington Ave,301468.719,4837943.083,-79.5411253813,43.6834331389,116610.0,297,POINT (-79.5411253813306 43.6834331389291)
297,Weston Library,One of 100 Toronto Public Libraries across the city.,,http://www.torontopubliclibrary.ca/detail.jsp?Entt=RDMLIB093&R=LIB093,Library,2 King St,303125.354,4839985.162,-79.5205848964,43.7018204059,116611.0,298,POINT (-79.5205848963752 43.7018204058879)
298,Woodview Park Library,One of 100 Toronto Public Libraries across the city.,,http://www.torontopubliclibrary.ca/detail.jsp?Entt=RDMLIB095&R=LIB095,Library,16 Bradstock Rd,301698.411,4844171.134,-79.538311014,43.739487341,116612.0,299,POINT (-79.538311014 43.739487341)
299,Humber Bay Shores Park,"Humber Bay Shores Park is one of a number of parks along the Etobicoke lakeshore that are connected by the Martin Goodman Trail, which stretches from downtown Toronto. Cyclists can access the park from downtown on this trail. This park is listed as one o",,http://www1.toronto.ca/parks/prd/facilities/complex/2054/,Nature,"-79.475690,43.628144",306745.864,4831801.037,-79.47569,43.628144,116613.0,300,POINT (-79.47569 43.628144)
300,Humber Bay Butterfly Habitat,"The Humber Bay Butterfly Habitat provides a critical habitat for a variety of butterfly species with its diverse range of wildflowers, grasses, shrubs and trees. With over a hectare of land, there are natural elements available to support butterflies in",,http://www1.toronto.ca/wps/portal/contentonly?vgnextoid=95e8dada600f0410VgnVCM10000071d60f89RCRD&vgnextfmt=default,Nature,"-79.477272,43.624203",306618.295,4831363.184,-79.477272,43.624203,116614.0,301,POINT (-79.477272 43.624203)
301,Humber Bay Park East,"Humber Bay Park East and West are man-made land extensions. Today, Humber Bay Park East offers great views of Lake Ontario, the city's skyline and trails for walking, biking and hiking. It is also home to a variety of wildlife.",,http://www1.toronto.ca/parks/prd/facilities/complex/1073/,Nature,"-79.475516,43.621706",306760.089,4831085.828,-79.475516,43.621706,116615.0,302,POINT (-79.475516 43.621706)
302,Humber Bay Park West,"With its trails, picnic areas and an off-leash area for dogs, Humber Bay Park West is a great spot to enjoy a stroll or a fun family activity. It offers a gorgeous view of Lake Ontario and many bird species can be spotted. Public boat launches are also a",,http://www1.toronto.ca/parks/prd/facilities/complex/1074/,Nature,"-79.477413,43.616538",306607.125,4830511.657,-79.477413,43.616538,116616.0,303,POINT (-79.477413 43.616538)
303,Christ Church Mimico Memorial Garden,"This park commemorates the oldest Anglican congregation in Mimico, established in 1827. Before the church was built services were conducted in the home of local John William Gamble, until he donated land on Church Street (Royal York Road) in 1832 for Chr",,,Nature,"-79.498189805,43.616924135",304930.155,4830554.342,-79.498189805,43.616924135,116671.0,304,POINT (-79.498189805 43.616924135)
304,The Gatehouse Transformational Healing Garden,The Healing Garden was created in 2014 by The Gatehouse staff and community volunteers. Take a moment and sit on the benches in the garden if you wish to take a rest. The Gatehouse is part of the Lakeshore Grounds.,,,Nature,"-79.513471,43.598589",303696.54,4828517.431,-79.513471,43.598589,116618.0,305,POINT (-79.513471 43.598589)
305,Colonel Samuel Smith Park,"Part of the Lakeshore Grounds, surrounding the beautiful historical buildings, Colonel Samuel Smith Park continues to be treasured and well-used by the community, offering remarkable vistas of Lake Ontario. People of all ages enjoy the extensive parkland",,http://www1.toronto.ca/parks/prd/facilities/complex/466/,Nature,"-79.511788,43.591600",303832.281,4827740.998,-79.511788,43.5916,117038.0,306,POINT (-79.511788 43.5916)
306,Ice Skating Trail,"Located adjacent to the Power House is Toronto's first and only outdoor skating trail running the length of 250 metres in a unique figure-eight shape. Although there is no public skate rental, the Power House offers a place to warm up and put your skates",,,Nature,"-79.515585,43.592803",303525.737,4827874.678,-79.515585,43.592803,116619.0,307,POINT (-79.515585 43.592803)
307,Centennial Park,"Centennial Park is Toronto's second largest park (212 hectares). It was created in the 1960s to celebrate Canada's 100th birthday. The park opened in 1967 and was formerly part of Hiron's Dairy farm, one of Toronto's last working farms. Centennial Park h",,http://www1.toronto.ca/parks/prd/facilities/complex/798/,Nature,"-79.589597,43.654201",297557.081,4834699.418,-79.589597,43.654201,116620.0,308,POINT (-79.589597 43.654201)
308,Centennial Park Conservatory,"The Centennial Park Conservatory is a wonderful retreat from the winter blues or simply to bask in the beauty of nature. Built in 1970 at 1,114.84 square metres, the
conservatory now covers roughly 2,415.48 square metres featuring a number of native and",,http://www1.toronto.ca/wps/portal/contentonly?vgnextoid=a7b9dada600f0410VgnVCM10000071d60f89RCRD,Nature,"-79.587933,43.649599",297690.746,4834188.014,-79.587933,43.649599,116702.0,309,POINT (-79.58793300000001 43.649599)
309,Tom Riley Park,"Tom Riley Park, runs down the Mimico Creek valley from Dundas Street to Bloor Street. The park, originally known as Central Park, opened in two sections in 1941 and 1944 on land donated by the Montgomery family and J.A.L. MacPherson, respectively. It was",,http://www1.toronto.ca/parks/prd/facilities/complex/837/,Nature,"-79.520313,43.647182",303145.291,4833916.072,-79.520313,43.647182,116542.0,310,POINT (-79.520313 43.647182)
310,New Horizons Community Garden,"New Horizons Community Garden was founded in 2007 by members of the Multicultural Association of Bosnian Seniors and their Friends. Here, Bosnians from different parts of the former Yugoslavia have turned empty plots of land into thriving gardens. Severa",,,Nature,"-79.518774,43.646233",303269.425,4833810.605,-79.518774,43.646233,116543.0,311,POINT (-79.51877399999999 43.646233)
311,Montgomery's Meadow,"MontgomeryÂ¿s Meadow was created in 1997 by volunteers who planted a meadow of native wildflowers and grasses. By replacing the lawn with native plants, the land became a home for rabbits, mice, chipmunks, groundhogs, butterflies and song birds, creating",,,Nature,"-79.524718,43.651020",302790.054,4834342.572,-79.524718,43.65102,116544.0,312,POINT (-79.52471799999999 43.65102)
312,Mabelle Park,"Mabelle Park shows ongoing community work run by MABELLEarts called A Park of Many Paths. The project brings artists and residents together to transform and animate the park. Mabelle Park is used as an outdoor kitchen, has community gardens and holds per",,,Nature,"-79.528241,43.645591",302505.672,4833739.508,-79.528241,43.645591,116545.0,313,POINT (-79.52824099999999 43.645591)
313,James Gardens,"Its beautiful stone pathways, ponds and the mature trees make this a popular destination for flora lovers and photographers. It is also a great spot for walkers and hikers with access to trails along the Humber River. James Gardens is named after Frederi",,http://www1.toronto.ca/parks/prd/facilities/complex/3/,Nature,61A Edgehill Rd,303404.222,4836543.463,-79.517111085,43.670832726,116546.0,314,POINT (-79.517111085 43.670832726)
314,Lambton Woods,"Lambton Woods is a green space located on the west bank of the Humber River filled with mature trees, animals and birds. Be sure to take a moment to look up and around to spot the many birds living here. This part of the land was known as Lambton Mills.",,,Nature,"-79.514623,43.665707",303604.728,4835973.97,-79.514623,43.665707,116547.0,315,POINT (-79.514623 43.665707)
315,Ãtienne BrÃ»lÃ© Parkette,"This parkette is named after Ãtienne BrÃ»lÃ©, interpreter, explorer and the first European to see Lake Ontario (1615), including the mouth of the Humber River. Look out for a rock with a large blue plaque located in the park to read more about the history",,,Nature,13 Crosby Ave,304746.1,4835455.882,-79.500470518,43.661044868,116548.0,316,POINT (-79.500470518 43.661044868)
316,King's Mill Park,King's Mill was located on the west bank of the Humber River at the site of the Old Mill Toronto today. It was a part of Lieutenant Governor John Grave Simcoe's settlement program in Upper Canada. It supplied wood for the construction of Fork York and ea,,http://www1.toronto.ca/parks/prd/facilities/complex/1080/,Nature,9 Catherine St,305538.871,4834376.744,-79.490643509,43.651330761,116549.0,317,POINT (-79.49064350899999 43.651330761)
317,Humber Marshes Park,"Humber Marshes Park is surrounded by the Humber Marshes, a wetland area providing a year-round breeding habitat for many species of birds, fish and plants. The marsh levee ponds have remained the same for over 2,000 years. It is also a corridor for migra",,http://www1.toronto.ca/parks/prd/facilities/complex/464/,Nature,"-79.490769,43.642091",305528.846,4833350.262,-79.490769,43.642091,116550.0,318,POINT (-79.490769 43.642091)
318,South Humber Park,South Humber Park is a small park along the south Humber River that offers trails to walk close to the river.,,http://www1.toronto.ca/parks/prd/facilities/complex/1486/,Nature,"-79.479165,43.636546",306465.214,4832734.382,-79.479165,43.636546,116551.0,319,POINT (-79.47916499999999 43.636546)
319,Sheldon Lookout,Sheldon Lookout is a great spot to enjoy and photograph Toronto's skyline and Humber River Bicycle-Pedestrian Bridge. There are small plaques on a rock showing where the sun rises at different times of the year.,,,Nature,"-79.470945,43.630780",307128.701,4832093.985,-79.470945,43.63078,116552.0,320,POINT (-79.470945 43.63078)
320,The Guardians,"The Guardians is a series of five raven sculptures commissioned by the City of Toronto created by artist Amy Switzer in 2002 at the gerden of Humber Bay Butterfly Habitat. Birds living in the ares has adopted the sculptures, creating their own nests in t",,,Public Art,"-79.477289,43.624176",306616.924,4831360.184,-79.477289,43.624176,116553.0,321,POINT (-79.477289 43.624176)
321,Air India Sundial,"The Air India Sundial is a part of a memorial monument built in 2007, honouring the 329 victims of the bombing of Air India Flight 182 on June 23, 1985. The flight was on route to Delhi from Montreal, when it was bombed over the Atlantic Ocean off the so",,,Public Art,"-79.475587,43.623094",306754.316,4831240.023,-79.475587,43.623094,116554.0,322,POINT (-79.475587 43.623094)
322,Wave,"Invited by Lakeshore Arts, artists Patrick Thompson and Alexa Hatanaka designed this 7.32-metre-long art installation in 2012 on a fence adjacent to Amos Waites Park, where families, children and dog-walkers gather throughout the day and early evening. T",,,Public Art,"-79.488264,43.613860",305731.343,4830213.974,-79.488264,43.61386,116555.0,323,POINT (-79.488264 43.61386)
323,Birds & Beans CafÃ© mural,"Birds & Beans CafÃ© is a well-known neighbourhood favourite. Its upper east wall and the faÃ§ade of the second storey are covered with a colourful mural created in 2006 by local artist Gordon Roy. Taking inspiration from migratory birds and coffee trees, t",,,Public Art,2413 Lake Shore Blvd W,305678.386,4830229.874,-79.4889233195,43.6140117524,116556.0,324,POINT (-79.488923319455 43.6140117524413)
324,Fowl Play,"The Fowl Play mural is on the west side of the building. In 2013, under the direction of Lakeshore Arts and with the support of StreetARToronto, artists Alexa Hatanaka and Patrick Thompson explored the theme of water by creating a vista depicting the mar",,,Public Art,"-79.488949,43.613977",305676.05,4830226.965,-79.488949,43.613977,116557.0,325,POINT (-79.48894900000001 43.613977)
325,Generations,Generations was painted as a gift to the Mimico community. It is a large mural on the walls of the underpass and represents Mimico's history from presettlement to the advent of the railway to Mimico today. The east wall depicts the land prior to settleme,,,Public Art,"-79.498201,43.615768",304929.251,4830425.903,-79.498201,43.615768,116558.0,326,POINT (-79.49820099999999 43.615768)
326,Inspiration,"Student Artists of the Lakeshore Area (SALA) painted this mural during the summer of 2006. Prior to the mural being painted, the wall had been repeatedly vandalized. Students collaborated with local community members, business owners and other stakeholde",,,Public Art,2318 Lake Shore Blvd W,305779.371,4830626.924,-79.4876716152,43.6175856232,116559.0,327,POINT (-79.48767161515219 43.6175856231789)
327,Lakeshore on the Level,This hardware-themed mural was commissioned by Lakeshore Arts and Home Hardware in 2000. Artist Matthew Hansen painted this mural depicting a person's hand holding nails with a toolbox in the foreground. Water is a theme common to many of the local mural,,,Public Art,"-79.4890674511,43.6148857874",305666.477,4830327.926,-79.4890674511,43.6148857874,116688.0,328,POINT (-79.4890674511 43.6148857874)
328,Articulate murals,"Twelve youth ages 12 to 17 from the Lakeshore Arts program ARTiculate: Youth Leadership in the Arts used their community as inspiration to design their own mini murals. The youth brightened up parking stanchions with painted images of water, fish, sailbo",,,Public Art,2399 Lake Shore Blvd W,305717.643,4830301.874,-79.4884368573,43.6146598066,116561.0,329,POINT (-79.48843685727449 43.6146598066057)
329,Lakeshore Aquarium,"In the summer of 1999, the Equally Healthy Kids Graffiti Transformation Project Team painted this mural. Student artists included Emanuel Antwi, Julia Jagielowicz, Anna Recknagel, Breanne Woods, Raffael Islesias, Janet Kilbreath and Amanda Primeau. This",,,Public Art,2454 Lake Shore Blvd W,305610.59,4830182.23,-79.489760042,43.613574389,116562.0,330,POINT (-79.489760042 43.613574389)
330,In Perspective,A contest was held as part of the mural painting process at this location and residents were invited to submit their photos for a chance to have their likeness incorporated into the art piece. Pictured in the mural is a bearded man walking on the path an,,,Public Art,2458 Lake Shore Blvd W,305609.99,4830165.156,-79.4897675,43.613420701,116563.0,331,POINT (-79.4897675 43.613420701)
331,Down the Creek Way,"Down the Creek Way is the colourful mural on the right depicting a nostalgic view of swimmers about to bathe in Mimico Creek circa 1920s. The mural was painted in 2012.Lakeshore Arts, with support from Toronto Economic Development & Culture's Mural Proje",,,Public Art,2491 Lake Shore Blvd W,305647.147,4830105.008,-79.4893105217,43.6128878274,116564.0,332,POINT (-79.4893105216626 43.6128878274122)
332,Morning Ice Harvest on the Humber,"Morning Ice Harvest on the Humber honours those who gathered ice from the Humber River Â¿ a necessary commodity in the days before air conditioning and refrigeration. The mural was painted in 2012.Lakeshore Arts, with support from Toronto Economic Develop",,,Public Art,2491 Lake Shore Blvd W,305647.147,4830105.008,-79.4893105217,43.6128878274,116585.0,333,POINT (-79.4893105216626 43.6128878274122)
333,Seasons,Local artist and a long-time resident Gordon Roy painted this mural circa 2011. The mural depicts four scenes by the lake. On the far left is a summer scene with a silhouette of Toronto's skyline. The second scene shows dawn or sunset with colours reflec,,,Public Art,2749 Lake Shore Blvd W,304902.771,4828900.539,-79.4985328696,43.6020464129,116586.0,334,POINT (-79.49853286959561 43.6020464129126)
334,Commemorating 50 years of the Canadian Flag,"The year 2015 marked the 50th anniversary of the Canadian flag. In celebration of this anniversary, local artist Chris Irvine painted this mural. Commissioned by the Lakeshore Village BIA, the mural received the Outstanding Murals award at the Toronto As",,,Public Art,2938 Lake Shore Blvd W,304334.097,4828780.699,-79.5055771522,43.6009677696,116587.0,335,POINT (-79.5055771521632 43.6009677696478)
335,Pizzaiolo mural,"Student Artists of the Lakeshore Area painted this mural as one of the 47 murals created across Toronto. Student artists included Cathleen Carey, Crystol Philadelphia, Sarah Jargstorf, Aaron Li-Hill, Christina Olanick and Sady Ducros.",,,Public Art,3019 Lake Shore Blvd W,304114.429,4828659.763,-79.5082980456,43.5998790414,116588.0,336,POINT (-79.50829804561771 43.5998790413856)
336,Third Garden,"Third Garden is a public art installation commissioned in 1999 by the City of Toronto, designed by artists Millie Chen and Warren Quigley. It is a site-specific art installation consisting of five cast iron seating forms, eight concrete pavers inlaid wit",,,Public Art,"-79.516437,43.598083",303457.084,4828461.25,-79.516437,43.598083,116589.0,337,POINT (-79.516437 43.598083)
337,Cavalcade of Colour,"The inspiration for this mural, commissioned by Lakeshore Arts, came from the restaurant itself. In 1998, artist Tiffany Zufelt collaborated with restaurant owners to determine what would represent the restaurant and shared conversations about Greece and",,,Public Art,3235 Lake Shore Blvd W,303023.018,4828325.892,-79.5218159091,43.5968724216,116590.0,338,POINT (-79.5218159090763 43.5968724216258)
338,Girl on a Swing,"This mural was created in June 1997 by local high school students Theresa Chen, Damian Ghoura, Lisa Rodriguez and Wen-Shun Lin, from Lakeshore Collegiate under the direction of their art teacher, Cate Freeman. Commissioned by Lakeshore Arts and supported",,,Public Art,"-79.5231411626,43.5971164311",302915.771,4828353.981,-79.5231411626,43.5971164311,116693.0,339,POINT (-79.5231411626 43.5971164311)
339,The Gazebo,"Etobicoke resident Walter Ruston has been painting murals for over four decades. This mural, painted in June 1997, commissioned by Lakeshore Arts and supported by the Long Branch BIA, the then City of Etobicoke, Colour Your World and Protek Paint, featur",,,Public Art,"-79.5263445379,43.5958652736",302657.095,4828215.07,-79.5263445379,43.5958652736,116694.0,340,POINT (-79.5263445379 43.5958652736)
340,Bringing the Lake up to Lakeshore,"Painted by local artist Barb Symons in the summer of 1999, Bringing the Lake up to Lakeshore does just that. To Barb, water is the most important source of livelihood on the planet. The mural celebrates this great resource, which is such a focal point fo",,,Public Art,3481 Lake Shore Blvd W,302315.114,4828111.111,-79.5305829321,43.5949369079,116593.0,341,POINT (-79.53058293205601 43.5949369079129)
341,The Evolution of Transportation,"Artist Stephen Stanley created this mural depicting the history of transportation in the Long Branch area. It was dedicated by then Etobicoke Mayor Doug Holyday on October 16, 1996.",,,,"-79.544525,43.591869",301188.96,4827771.752,-79.544525,43.591869,117036.0,342,POINT (-79.54452499999999 43.591869)
342,"Land, Sea & Air","Painted in 2001 by local artist Gordon Roy, the mural is a memorial to Canadian veterans of WWI and WWII. It represents land, sea and air as the veterans fought in all three.",,,Public Art,3850 Lake Shore Blvd W,301138.239,4827675.697,-79.5451557956,43.5910127359,116595.0,343,POINT (-79.54515579560289 43.5910127359499)
343,Cenotaph at Etobicoke Civic Centre,"Located outside the east doors of Etobicoke Civic Centre, the cenotaph, an empty tomb or a monument erected in honour of a person or group of people, was originally a clock tower and was transformed into a memorial to those who gave their lives in World",,,Public Art,"-79.564918,43.643992",299546.79,4833563.368,-79.564918,43.643992,116596.0,344,POINT (-79.56491800000001 43.643992)
344,Galaxy,"Galaxy is located in front of the building beside Speaker's Corner. This sculpture was designed by Gerald Gladstone, commissioned by the Constellation Hotel in 1964 and donated to Etobicoke in 1981. Gladstone, fascinated with space and the human spirit,",,,Public Art,"-79.565752,43.643563",299479.466,4833515.762,-79.565752,43.643563,116597.0,345,POINT (-79.565752 43.643563)
345,Everyone Everywhere,"Completed in 2013 by lead artists Anna Camilleri and Tristan Whiston, this 60.96-metre-long mural reflects Article 6 of the Universal Declaration of Human Rights (""Everyone has the right to recognition everywhere as a person before the law"") and depicts",,,Public Art,"-79.526130,43.650975",302676.151,4834337.609,-79.52613,43.650975,116565.0,346,POINT (-79.52612999999999 43.650975)
346,Welcome Mural,This aptly named mural welcomes people to the Village of Islington. In the background on the left-hand side you'll find various historic buildings. The people depicted on the right are as follows: Helen Tier (left) and Mary Appleby (right). In the buggy:,,,Public Art,"-79.526842,43.651081",302618.721,4834349.403,-79.526842,43.651081,116566.0,347,POINT (-79.526842 43.651081)
347,Golfing in Islington,"Like looking through a window, this mural portrays the nearby Islington Golf Club, which has remained relatively unaltered since it opened in 1923. The golf course was designed by Stanley Thompson, one of the foremost golf course architects in North Amer",,,Public Art,4866 Dundas St W,302522.894,4834229.414,-79.5280327272,43.6500092928,116567.0,348,POINT (-79.5280327272279 43.6500092927955)
348,Aftermath,"This dramatic mural depicts the aftermath of Hurricane Hazel, which struck Toronto on October 15, 1954, flooding areas near Mimico Creek and the Islington Golf Course. The mural shows a volunteer clean-up crew assisting members of the Islington Fire Brig",,,Public Art,4868 Dundas St W,302517.74,4834226.341,-79.5280966079,43.6499816189,116568.0,349,POINT (-79.5280966078715 43.6499816188575)
349,Portraits from our Past,"Painted by Manitoba artist Sarah Collard, this mural is based on historical photographs of the Village of Islington. It can be seen as four separate smaller murals, each a vignette of daily life from the village's past. The far left mural shows the Bigha",,,Public Art,4886 Dundas St W,302498.829,4834186.548,-79.5283308795,43.6496233919,116569.0,350,POINT (-79.5283308794658 43.6496233919069)
350,"Battersby's March, 1813","Here you will see Lieutenant Colonel Francis Battersby leaving Toronto (then known as York) on July 29, 1816, along Dundas Street with his Canadian soldiers to secure Burlington Heights from the threat of an American naval attack. This action discouraged",,,Public Art,4914 Dundas St W,302450.65,4834122.632,-79.5289278791,43.6490479589,116570.0,351,POINT (-79.5289278791176 43.6490479588971)
351,The Pub with No Beer,"It is 1920s prohibition era (1916-1927) and this truck is only picking up empty pop bottles outside of the old Islington Hotel. Later called the Islington House or simply ""The Izzy"", it was a popular pub and meeting point right up until its 1986 demoliti",,,Public Art,4946 Dundas St W,302399.804,4834029.076,-79.529554523,43.648197146,116571.0,352,POINT (-79.529554523 43.648197146)
352,Gordon's Dairy ca.1940,"This mural shows Gordon's Dairy, a popular local landmark in the 1940s for youth visiting the lunch counter and dairy bar. The owners were Islington residents Earle Gordon, daughter Grace who was the bookkeeper and three of his sons (Reid and Bud are see",,,Public Art,4968 Dundas St W,302355.951,4833967.679,-79.530097879,43.647644389,116572.0,353,POINT (-79.530097879 43.647644389)
353,The Way We Were - Part I Islington ca. 1912,"A window into 1912 Dundas Street looking east, this mural is the first of two painted from Montgomery's Inn's archival documents. The family shown on the left in this mural is that of Islington photographer Walter Moorhouse. The two children on the right",,,Public Art,4972 Dundas St W,302342.823,4833947.15,-79.5302638094,43.6474681468,116573.0,354,POINT (-79.5302638094266 43.6474681468384)
354,The Way We Were - Part II,"The second installation of The Way We Were depicts the village around 1912. Complementing the first mural, this painted scene features Dundas Street looking west. The streetscape includes the old Islington Hotel. You will also notice a group of workmen p",,,Public Art,4984 Dundas St W,302319.875,4833924.138,-79.5305481787,43.6472609484,116574.0,355,POINT (-79.5305481786548 43.6472609484349)
355,Mimico Creek ca. 1920,"Featured here are Mimico Creek and Dundas Street. It was very common for artists to gather on the steps of Montgomery's Inn to take in the beautiful vista. Many pieces of art were inspired by these views, much like the one you see in front of you that in",,,Public Art,4986 Dundas St W,302316.756,4833919.459,-79.5305868225,43.6472188233,116575.0,356,POINT (-79.5305868225232 43.647218823291)
356,Honouring Islington's Volunteer Fire Brigade,"Here the artist, John Kuna honours the Islington Volunteer Fire Brigade who bravely fought fires and contributed to the community by building dams on Mimico Creek south of Dundas to create a skating rink during the winter time. Kuna's talent is demonstra",,,Public Art,4988 Dundas St W,302307.789,4833893.86,-79.530697869,43.6469883819,116576.0,357,POINT (-79.53069786901079 43.6469883819092)
357,Ontario Gothic,"If you are familiar with the 1930s painting American Gothic by Grant Wood, you will appreciate that this mural is a local parody called Ontario Gothic. KunaÂ¿s version is based on a photo of the local Appleby family and their farmhouse circa 1890. Like th",,,Public Art,"-79.5308380266,43.6468487972",302296.213,4833879.309,-79.5308380266,43.6468487972,116689.0,358,POINT (-79.53083802659999 43.6468487972)
358,"Harold G. Shipp's ""First High Flyer!""",The astounding scene (based on true events) of a Lancaster Bomber dropping cards onto the Etobicoke High School football field is represented here. Eighteen-year-old student Harold G. Shipp staged this event by convincing a pilot who ferried Lancaster bo,,,Public Art,"-79.5309095766,43.6467701938",302290.438,4833870.578,-79.5309095766,43.6467701938,116690.0,359,POINT (-79.5309095766 43.6467701938)
359,Prodigy,The arts are a vital component of any community and the Village of Islington celebrates their musical history in this mural. The Royal Conservatory of Music (RCM) was founded in 1886 and opened a satellite branch at this location in the 1950s. Kuna honou,,,Public Art,5048 Dundas St W,302240.36,4833793.539,-79.5315332825,43.6460852027,116579.0,360,POINT (-79.5315332825343 43.6460852026709)
360,Fishing in Mimico Creek,"This mural is a part of a trilogy of murals with a ""children at play"" theme. Giving us a glimpse of children fishing in Mimico Creek in 1920, note the intricacy in this muralÂ¿s many levels: the children playing above the water, the riverbank and under th",,,Public Art,5096 Dundas St W,302150.418,4833668.284,-79.5326476145,43.6449575221,116580.0,361,POINT (-79.5326476144951 43.6449575220729)
361,Riding the Radials,"This is another mural in the ""children at play"" trilogy. This mural illustrates what is now known as the streetcar, referred to as radial trains as early as 1917. The name originates from the system in which the transit lines were organized. The tracks b",,,Public Art,5110 Dundas St W,302131.093,4833652.72,-79.5328870932,43.6448173789,116581.0,362,POINT (-79.53288709316421 43.6448173789198)
362,Toboggan Hill,"Toboggan Hill is the third mural with the ""children at play"" theme. The inspiration for this mural came from a photo in the Islington archives of Montgomery's Inn. The children are enjoying the crisp winter weather tobogganing down the hill from Dundas S",,,Public Art,5112 Dundas St W,302123.323,4833640.594,-79.5329833521,43.6447082138,116582.0,363,POINT (-79.53298335209929 43.6447082138139)
363,The Old Swimming Hole,"The swimming hole that inspired this piece of art was located on Willow Dale Farm on Mimico Creek. Mary Appleby wrote a note that described a swimming hole, originally at the site of a functioning sawmill frequented by village youth. The mill stood besid",,,Public Art,5126 Dundas St W,302100.262,4833605.946,-79.5332690442,43.6443962786,116583.0,364,POINT (-79.53326904423029 43.6443962785663)
364,Timeline: Islington Then and Now,"The timeline reflected in this mural provides a glimpse into three different stages of village development from the artist's perspective. The mural begins on the left with the village's original shop, Dunn's General Store, which sold groceries and hardwa",,,Public Art,4959 Dundas St W,302401.216,4833968.103,-79.529536763,43.647648338,116584.0,365,POINT (-79.529536763 43.647648338)
365,Briarly - Gone But Not Forgotten,"Now demolished, Briarly House is remembered through this beautiful mural. Briarly was named after the briar roses that once adorned its gardens. Kuna emphasizes that this is not a mournful reflection on lost history, but considers it an example of the en",,,Public Art,4937 Dundas St W,302425.388,4834003.411,-79.529237266,43.647966212,116655.0,366,POINT (-79.529237266 43.647966212)
366,The Faces of Islington,The demographics of a community make up a large part of its cultural character. The changing settlement history in the Village of Islington is seen here through the faces and design patterns on this mural. The panorama of children represented in the mura,,,Public Art,"-79.5283714371,43.6488010896",302495.263,4834096.145,-79.5283714371,43.6488010896,116680.0,367,POINT (-79.52837143710001 43.6488010896)
367,Faith of Our Fathers 2,"The Islington United Church featured in this mural has a very long history in the community. As early as 1815 ministers on horseback, also known as circuit riders, travelled between communities to help with spiritual matters and needs. The mural features",,,Public Art,"-79.5282358652,43.6489614153",302506.205,4834113.954,-79.5282358652,43.6489614153,116681.0,368,POINT (-79.5282358652 43.6489614153)
368,The Art Alley Mural Project,"This poetic mural, produced by Arts Etobicoke, interprets the Article 13 of the Universal Declaration of Human Rights (Â¿Everyone has the right to freedom of movement.Â¿). Toronto's then Poet Laureate Dionne Brand wrote a poem based on this article. Artist",,,Public Art,"-79.5279550995,43.6492248609",302528.863,4834143.216,-79.5279550995,43.6492248609,116682.0,369,POINT (-79.52795509950001 43.6492248609)
369,The Manse Committee,"This mural provides an inside peek at the typical interior of a building and manse in 1888. The manse, or minister's residence depicted here is that of Islington Methodist, then United Church (see #9). It features the Manse Committee, a group that provid",,,Public Art,4879 Dundas St W,302537.12,4834161.056,-79.5278560896,43.6493940378,116659.0,370,POINT (-79.52785608958619 43.6493940378055)
370,Album,"With its variety of mosaics, this mural, created by artists Anna Camilleri and Tristan R. Whiston who led local community workshops, was painted in 2015 as part of the Pan Am Path to distinguish the contributions of lesbian, gay, bisexual and transgender",,,Public Art,"-79.505438,43.662888",304345.431,4835660.674,-79.505438,43.662888,116660.0,371,POINT (-79.505438 43.662888)
371,LAMP Community Health Centre,"LAMP CHC is a multi-service, community based charitable organization that provides a wide range of programs and services including community arts initiatives and events to improve a person's health.",,http://lampchc.org/,Community,185 Fifth St,304507.126,4829070.156,-79.5034339274,43.6035732954,116485.0,372,POINT (-79.50343392743321 43.6035732953722)
372,Toronto Ribfest,"Toronto Ribfest is an annual summer event produced by Rotary Etobicoke. It takes place in Centennial Park with about 10,000 racks of ribs and 500 roasts of pulled pork eaten each year.",,http://torontoribfest.com/,Community,256 Centennial Park Rd,297777.864,4835045.576,-79.586864373,43.657319079,116486.0,373,POINT (-79.586864373 43.657319079)
373,Etobicoke Civic Centre Farmers' Market,"The Etobicoke Civic Centre Farmers' Market runs every Saturday from 8 a.m. - 2 p.m., June to October. Discover the wide array of local produce and food products offered at the market.",,,Community,399 The West Mall,299503.625,4833538.964,-79.5654560752,43.6437806,116487.0,374,POINT (-79.56545607523699 43.6437805999956)
374,Montgomery's Inn Farmers' Market,The Farmers' Market at Montgomery's Inn is open year-round on every Wednesday from 2 - 6 p.m. Admission to the Inn is free during Farmers' Market hours.,,http://toronto.ca/montgomerysinn,Community,4709 Dundas St W,302714.192,4834415.799,-79.525658746,43.651678917,116488.0,375,POINT (-79.525658746 43.651678917)
375,Humber Bay Shores Waterfront Festival,"This annual summer event is produced by Humber Bay Shore Condominium Association. It takes place on Marine Parade Drive and features activities for all ages, talent shows, music, artisan booths and other attractions.",,http://humberbayshores.org/,Community,"-79.476407,43.627805",306688.009,4831763.361,-79.476407,43.627805,116489.0,376,POINT (-79.47640699999999 43.627805)
376,Lakeshore Mardi Gras,"This annual summer event is produced by The Lakeshore Mardi Gras Committee, a community-driven organization. It takes place in Colonel Samuel Smith Park and features a wide variety of cuisines, live music, vendors and more.",,http://www.lakeshoremardigras.ca/,Community,"-79.514540,43.597807",303610.224,4828430.566,-79.51454,43.597807,116490.0,377,POINT (-79.51454 43.597807)
377,Taste of the Kingsway,"This annual fall event is produced by The Kingsway BIA. It takes place in the Kingsway neighbourhood on Bloor Street West featuring a wide variety of cuisines, family entertainment and attractions.",,http://kingswaybia.ca/taste-of-the-kingsway,Community,"-79.511321,43.647344",303870.726,4833933.892,-79.511321,43.647344,116491.0,378,POINT (-79.511321 43.647344)
378,Lakeshore Arts,"Lakeshore Arts is passionate about using the arts to transform, inspire, engage and educate communities. This grassroots community arts organization offers free, innovative multi-disciplinary programs accessible to all ages and skill levels that explore",,http://lakeshorearts.ca/,Creative,"-79.4892729633,43.6145552298",305649.893,4830291.2,-79.4892729633,43.6145552298,116676.0,379,POINT (-79.4892729633 43.6145552298)
379,Smith Zone Gallery,"Smith Zone Gallery, a 1,000 sq. ft. space, exhibits a range of work by emerging and established local artists, youth and community organizations. Exhibits change regularly so be sure to keep an eye on Lakeshore Arts' Facebook and Twitter pages for inform",,http://lakeshorearts.ca/gallery/exhibitions-2/,Creative,"-79.4892729633,43.6145552298",305649.893,4830291.2,-79.4892729633,43.6145552298,116677.0,380,POINT (-79.4892729633 43.6145552298)
380,Sirius Theatrical Company,"Sirius Theatrical Company strives to engage, energize and inspire communities. The company develops performance pieces that reflect cultural and artistic diverisity. Along with their performances, Sirius also facilitates a wide variety of workshops and t",,http://siriustheatrical.com/,Creative,119 Mimico Ave,305066.589,4830015.574,-79.4965029055,43.6120831338,116494.0,381,POINT (-79.49650290548399 43.6120831338305)
381,Assembly Hall,"Run by the City of Toronto, the Assembly Hall provides space to many Toronto arts, heritage and community groups including Lakeshore Arts, Theatre Etobicoke and Young People's Theatre. The building offers a 250+ seat performance hall for music, theatre,",,http://toronto.ca/assemblyhall,Creative,1 Colonel Samuel Smith Park Dr,303506.518,4828414.298,-79.5158278308,43.5976690087,116495.0,382,POINT (-79.51582783078911 43.5976690087187)
382,L Space Gallery,"A cultural hub, the gallery aims to enhance Humber College and foster connections between the arts and experiential education. The gallery is managed by Humber College staff and an advisory committee to ensure artistic excellence, participation and free",,http://humber.ca/lakeshorecampus/old-2015/lspacegallery,Creative,19 Colonel Samuel Smith Park Dr,303567.003,4828221.526,-79.515074838,43.595925284,116496.0,383,POINT (-79.515074838 43.595925284)
383,Etobicoke Civic Centre Art Gallery,"The Etobicoke Civic Centre Art Gallery was formed in 1976, created by the Etobicoke City Council to support arts in the community, it has been an integral part of the visual arts scene ever since. The gallery is located along the hallway just inside the",,http://www1.toronto.ca/wps/portal/contentonly?vgnextoid=10aa2271635af310VgnVCM10000071d60f89RCRD,Creative,399 The West Mall,299503.625,4833538.964,-79.5654560752,43.6437806,116497.0,384,POINT (-79.56545607523699 43.6437805999956)
384,Neilson Park Creative Centre,"Neilson Park Creative Centre (NPCC) is a community arts centre. It offers various classes for all ages, camps, free exhibitions and hosts festivals year round. Walk into the Main Gallery for a traditional experience or enjoy the art more casually in the",,http://neilsonparkcreativecentre.com/index.php?lang=en,Creative,56 Neilson Dr,299425.355,4832032.578,-79.566407828,43.630211908,116498.0,385,POINT (-79.566407828 43.630211908)
385,Arts Etobicoke,"Arts Etobicoke is a community arts council dedicated to bringing art into the daily lives of its community members and beyond, believing that people thrive when art touches their lives. For over 40 years, Arts Etobicoke has been finding innovative ways t",,http://artsetobicoke.com/,Creative,4893A Dundas St W,302515.908,4834125.883,-79.528115626,43.649068814,116651.0,386,POINT (-79.528115626 43.649068814)
386,MABELLEarts,"MABELLEarts make art and build environments that foster community regeneration and invention. They celebrate cultural traditions, differences and points of connection that help spark collaboration as a creative force for change.",,http://mabellearts.ca/,Creative,5005 Dundas St W,302305.928,4833790.048,-79.5307204915,43.6460539737,116499.0,387,POINT (-79.5307204914569 43.6460539737128)
387,"Humber College, School of Creative and Performing Arts","The School of Creative and Performing Arts is part of the Humber College Lakeshore Campus, home to a collection of professional training programs,supported by an array of specialized facilities.",,http://humber.ca/scapa,Creative,3199 Lake Shore Blvd W,303141.356,4828366.818,-79.5203504404,43.5972410025,116500.0,388,POINT (-79.5203504404198 43.5972410024712)
388,Etobicoke School of the Arts,"Etobicoke School of the Arts is a specialized, public arts-academic high school. Founded in 1981, it is the oldest arts-focused high school in Canada.",,http://www.esainfo.ca/,Creative,675 Royal York Rd,304449.281,4832088.349,-79.5041517834,43.6307407802,116501.0,389,POINT (-79.5041517833774 43.6307407801638)
389,Mimico Train Station,"In the mid-19th century, many railway routes were created in south central Ontario. They were the catalyst for the development of new communities, including Mimico.  In the 1980s, the building was no longer used and it became vulnerable to structural dam",,http://mimicostation.ca/,History,10 Judson St,304834.719,4830476.922,-79.499372236,43.616227254,116502.0,390,POINT (-79.499372236 43.616227254)
390,St. Leo's Catholic Church,"The present building is St.Leo's second building. The first church was located on the opposite side of Royal York Road. The land was donated in 1895 and the cornerstone of the first church was laid in 1901. In 1912, the church grew to 300 parishioners an",,http://saintleosmimico.ca/,History,277 Royal York Rd,305025.72,4830259.57,-79.4970091168,43.6142793673,116503.0,391,POINT (-79.4970091167767 43.6142793672998)
391,Mimico Post Office,"This building once served as the Mimico Post Office. It has changed little over the years, but has a past involving armed bandits and kidnapped captives. On March 2, 1929, a truck from the Mimico Post Office made its way towards Mimico's railway station",,,History,285 Royal York Rd,304990.484,4830286.082,-79.4974456594,43.6145180114,116504.0,392,POINT (-79.497445659389 43.614518011398)
392,Windsor Public House,"The Blue Goose Tavern has been a local fixture since 1892. Built originally as the Windsor Hotel, it was placed adjacent to Mimico's first train station, picking up business from people waiting to catch a train the next morning, railway management and ra",,,History,1 Blue Goose St,305127.085,4830534.43,-79.4957531911,43.6167534553,116505.0,393,POINT (-79.49575319105629 43.6167534553086)
393,Lakeshore Grounds,"The Lakeshore Grounds site is the jewel of the surrounding community. In the late 18th century, Colonel Samuel Smith was granted 1,680 hectares of Crown land in what is now known as south Etobicoke, including the Lakeshore Grounds, in recognition of his",,,History,"-79.514122,43.594505",303643.895,4828063.741,-79.514122,43.594505,116506.0,394,POINT (-79.514122 43.594505)
394,Lakeshore Grounds - Administration Building,"Built in 1890 in Romanesque style, the Administration Building is the most prominent building and an architectural focal point of the entire complex. It can
be approached by a circular driveway, which can be entered through the treed main road. A large c",,,History,"-79.513625,43.596234",303684.06,4828255.811,-79.513625,43.596234,116696.0,395,POINT (-79.513625 43.596234)
395,Lakeshore Grounds - The Cottages,"The Cottages, built in a quadrangle, accommodated patients, staff, administrators and visitors of the Lakeshore Psychiatric Hospital and were central to day-to-day life. Patient-labour was used to build the structures as part of the therapy and vocationa",,,History,"-79.515158,43.596678",303560.308,4828305.148,-79.515158,43.596678,116507.0,396,POINT (-79.515158 43.596678)
396,Lakeshore Grounds - Tunnels,"There is a tunnel complex that runs below the cottages that was used to transport food and laundry between buildings. The tunnels were connected to the central building that contained a kitchen, laundry, bakery, boiler house and apartments for female att",,,History,"-79.515969,43.596597",303494.83,4828296.159,-79.515969,43.596597,116508.0,397,POINT (-79.515969 43.596597)
397,Lakeshore Grounds - Cumberland House,"Built in 1895, this house was the residence of the hospital's superintendent, T.D. Cumberland. The structure of the building is known as Queen Anne. It was built entirely by patient labour. It later became a school for the patients before it was renovate",,,History,"-79.511742 ,43.596038",303836.079,4828234.023,-79.511742,43.596038,116704.0,398,POINT (-79.511742 43.596038)
398,Lakeshore Grounds - Gate House,"When the site was built in 1893, it was called the Entrance Lodge. It was built by William Clarke, with the help of patient labour. The original configuration was a standard two-bedroom dwelling. In 1909, a kitchen, pantry, closets, bathrooms and a bedro",,,History,3101 Lake Shore Blvd W,303728.375,4828539.134,-79.5130799811,43.5987929589,116510.0,399,POINT (-79.5130799810556 43.5987929589288)
399,Lakeshore Grounds - The Power House,The Power House Recreation Centre was a masonry steam plant and stack built in 1937 to service the Lakeshore Psychiatric Hospital. It is now owned and operated by the City of Toronto and offers a variety of summer camps for children and youth that includ,,,History,"-79.515377,43.593509",303542.545,4827953.108,-79.515377,43.593509,116443.0,400,POINT (-79.515377 43.593509)
400,Applewood Shaver Homestead,"Applewood was built in 1852 by Peter and Esther Shaver and remained in the Shaver family until 1980. It is the birthplace of James Shaver Woodsworth, the principal founder of the Co-operative Commonwealth Federation (CCF) political party, forerunner to t",,http://www.applewoodshaverhouse.org/,History,450 The West Mall,299237.042,4834014.605,-79.56876232,43.648051488,116697.0,401,POINT (-79.56876232 43.648051488)
401,Samuel & Ann Mercer House,"Mercer House is known for its Georgian farmhouse-style with vibrant red bricks and a one-metre thick foundation made of local fieldstone and site made bricks. The house still stands as a local landmark, much like it did its heyday in 1820. The farmhouse",,,History,72 Old Burnhamthorpe Rd,298226.092,4833412.431,-79.581289809,43.6426312592,116444.0,402,POINT (-79.5812898089769 43.6426312592262)
402,Richview Memorial Cemetery,"Richview Memorial Cemetery is surrounded by highways providing a unique environment. It was originally the cemetery of Richview Methodist Church circa 1850. When the highway interchange was built in 1954, the church had to move to a new location, but the",,,History,"-79.575065,43.670432",298730.935,4836501.421,-79.575065,43.670432,116445.0,403,POINT (-79.575065 43.670432)
403,Andrew Coulter House,"The Andrew Coulter House is the oldest house in Etobicoke, built pre-1982. Originally the home of Andrew and Martha Coulter who purchased this 40 hectare piece of land in 1822. The five-bay Georgian style house was constructed from bricks made on site an",,,History,"-79.5680783472,43.6637011769",299293.701,4835753.166,-79.5680783472,43.6637011769,116691.0,404,POINT (-79.5680783472 43.6637011769)
404,Montgomery's Inn,"At the centre of this nascent Islington community was Montgomery's Inn, built in around 1830 and operated as public house (pub) for over 20 years. The Inn was constructed in the late Georgian or Loyalist architecture style by Thomas Montgomery. This styl",,http://www1.toronto.ca/wps/portal/contentonly?vgnextoid=2f3d2271635af310VgnVCM10000071d60f89RCRD,History,4709 Dundas St W,302714.192,4834415.799,-79.525658746,43.651678917,116698.0,405,POINT (-79.525658746 43.651678917)
405,Briarly Lane,"Briarly Lane is a private road with a small brick gateway with a numerous town houses lining the street. This is the former site of a home known as Briarly. Its original owners are unknown but it was the home of William Montgomery, Thomas Montgomery's so",,,History,"-79.523823,43.653452",302862.335,4834612.727,-79.523823,43.653452,116447.0,406,POINT (-79.52382299999999 43.653452)
406,St. George's On-The-Hill Anglican Church,"This church has been a landmark and a navigation point for over 160 years. The obvious feature of this site is its elevation, which was appreciated long before the church was built. In 1971, the church was registered as a site of archaeological interest.",,,History,4600 Dundas St W,303071.545,4834999.574,-79.5212340243,43.6569434147,116699.0,407,POINT (-79.5212340243301 43.6569434147077)
407,Montgomery Road,"Until 1962, there was no bridge on Islington Avenue over Mimico Creek. As a result, Islington Avenue coming from the north, ended at Dundas, to be continued again at Bloor Street. Islington Avenue was merely a dirt trail at this time. There was a bridge",,,History,"-79.525260,43.652318",302746.381,4834486.788,-79.52526,43.652318,116448.0,408,POINT (-79.52526 43.652318)
408,Musson House,"This is a large two-storey Regency-style house, a relatively rare remaining historic building. This house was built in 1880 and served as a community hub. Thomas Musson was the postmaster of the Village of Islington for 30 years until his death in 1899.",,,History,4884 Dundas St W,302507.993,4834200.508,-79.5282173329,43.6497490704,116449.0,409,POINT (-79.52821733286289 43.6497490703642)
409,Etobicoke Township Hall,"This building, that now houses the Fox & Fiddle, may not look all that old but it contains (the new structure was built over the old building) one of the oldest buildings in Islington Â¿ the village's First Methodist church built around 1843. In 1887, the",,,History,4946 Dundas St W,302399.804,4834029.076,-79.529554523,43.648197146,116700.0,410,POINT (-79.529554523 43.648197146)
410,Islington Burying Ground,"The Ontario Genealogical Society dates the establishment of the Islington Burying Ground to 1844 or before. It was opened on donated land and there are gravestones that date back prior to 1807, but said stones were likely moved to the grounds after the c",,,History,"-79.529917,43.648014",302370.557,4834008.738,-79.529917,43.648014,116450.0,411,POINT (-79.529917 43.648014)
411,Islington Senior's Centre,"The Islington Senior's Centre stands at the original location of Islington's first public school, erected in 1832. The school was later moved to a new brick building on Cordova Avenue and the original school building was converted into a house and later",,,History,4968 Dundas St W,302355.951,4833967.679,-79.530097879,43.647644389,116451.0,412,POINT (-79.530097879 43.647644389)
412,Edgehill House,"Edgehill House is the former summer home of Frederick and Margaret James, built in the early 1900s. Known for their community garden parties and musical concerts, the JamesÂ¿ wished to share their estate with the public. So, following their deaths, the 8",,,History,61 Edgehill Rd,303437.59,4836527.792,-79.5167005104,43.6707003324,116452.0,413,POINT (-79.5167005104196 43.6707003323554)
413,Lambton House,Lambton House is the site that commemorates Sir William Pearce Howland - A Person of National Historic Significance. It is the last remaining public building of Lambton Mills. It survived the fire of 1915 as it is a brickbuilding. The building served as,,http://lambtonhouse.org/,History,"-79.503608068,43.663141392",304493.023,4835688.812,-79.503608068,43.663141392,116692.0,414,POINT (-79.50360806800001 43.663141392)
414,Baby Point,"Baby Point was an estate of Colonel James Baby, who later became Inspector-General of Finances of Upper Canada. James Baby acquired 46 hectares of land overlooking the Humber River in 1815. BabyÂ¿s descendants lived in the area until about 1960s. To read",,,History,"-79.501486,43.653499",304664.177,4834617.593,-79.501486,43.653499,116454.0,415,POINT (-79.501486 43.653499)
415,Old Mill Toronto,"As the name indicates, the Old Mill has a long and rich history. The Old Mill area was the first industrial site in Toronto. Many mills operated along the Humber River in the 1800s. William Gamble built a mill on the site, which was destroyed by a fire i",,http://www.oldmilltoronto.com/,History,21 Old Mill Rd,305313.119,4834333.489,-79.4934452357,43.6509501455,116455.0,416,POINT (-79.49344523570841 43.6509501455337)
416,850 Degrees Pizzeria,Experts at taking a classic and making it original with the very best locally sourced ingredients.,,http://www.850degrees.ca/,Hot Eats,3455 Lake Shore Blvd W,302401.537,4828135.653,-79.529509358,43.595149523,116456.0,417,POINT (-79.529509358 43.595149523)
417,Appalachia Smokehouse & BBQ,Serving only Ontario raised hormone-free and steroidfree meat with all sides and sauces made in house.,https://www.facebook.com/appalachiasmokehouseandbbq?fref=ts,,Hot Eats,972 The Queensway,303648.279,4831345.254,-79.5140770297,43.6240510076,116457.0,418,POINT (-79.5140770297305 43.6240510076488)
418,Big Butcher BBQ,"Grilling antibiotic and horone-free beef, pork and chicken, with handmade buns, pastries, and desserts. Catering available.",,http://www.bigbutcherbbq.com/,Hot Eats,"-79.5317592444,43.6339812156",302221.378,4832449.781,-79.5317592444,43.6339812156,116669.0,419,POINT (-79.53175924440001 43.6339812156)
419,Birds & Beans Cafe,"Indulge in the simple pleasures with a latte and a view of the lake at Birds & Beans cafÃ©, offering Canada's best selection of bird friendly free trade organic coffees.",,http://www.birdsandbeans.ca/,Hot Eats,2413 Lake Shore Blvd W,305678.386,4830229.874,-79.4889233195,43.6140117524,116459.0,420,POINT (-79.488923319455 43.6140117524413)
420,Bombay on the Lake,"Serving healthy and authentic Indian food, prepared fresh. Visit this Etobicoke Guardian Reader's Choice award winner today.",,http://bombayonthelake.ca/,Hot Eats,3007 Lake Shore Blvd W,304147.833,4828668.875,-79.5078842747,43.5999610811,116460.0,421,POINT (-79.5078842747388 43.5999610811399)
421,Bonimi Restaurant,Serving delicious south European cuisine from former Yugoslavia.,,http://www.bonimi.ca/,Hot Eats,3319 Bloor St W,303134.663,4833687.807,-79.5204473172,43.6451358729,116461.0,422,POINT (-79.52044731718929 43.6451358729231)
422,Buon Giorno Caffe and Panini,A variety of hot and cold Italian sandwiches are available to be paired with a delicious beverage of your choice.,,http://www.buongiornocaffe.ca/,Hot Eats,1134 The Queensway,303211.655,4831203.975,-79.5194868952,43.622778574,116462.0,423,POINT (-79.5194868952034 43.6227785739729)
423,Cakestar,"Cakestar specializes in custom designed cakes, but the talent doesn't end there! Try out their delicious sweet treat trays.",,http://www.cakestar.ca/,Hot Eats,3431 Lake Shore Blvd W,302447.97,4828148.981,-79.528934321,43.595269638,116463.0,424,POINT (-79.52893432099999 43.595269638)
424,Carolina's Cuisina,Experience a comfortable atmosphere with quality Filipino cuisine at an affordable price.,,http://carolinascuisina.ca/,Hot Eats,323 Burnhamthorpe Rd,300778.689,4834103.863,-79.5496551245,43.6488728519,116464.0,425,POINT (-79.54965512448381 43.6488728519015)
425,Casa Barcelona!,"Wowing diners with its culinary prowess, cooked by some of Spain's best chefs since 1997.",,http://www.casabarcelona.ca/,Hot Eats,2980 Bloor St W,304004.205,4834007.862,-79.5096698931,43.6480186381,116465.0,426,POINT (-79.5096698930504 43.6480186380506)
426,Cirillo's Culinary Academy and Restaurant,Cooking classes and catering are available at this great event space.,,http://www.cirillosacademy.com/,Hot Eats,4894 Dundas St W,302479.391,4834156.94,-79.528571726,43.6493568391,116466.0,427,POINT (-79.5285717260037 43.6493568391477)
427,Creme de la CrÃ¨me,"From the mouth-watering pancakes to the smoked salmon Benedict and homemade hash browns, Creme de la Creme CafÃ© is a gem in the Etobicoke food scene.",,http://www.cremedelacremecafe.ca/,Hot Eats,2991 Bloor St W,303994.174,4833948.25,-79.5097941272,43.6474820225,116467.0,428,POINT (-79.5097941271965 43.6474820224782)
428,Dino's Wood Burning Pizza,"A fabulous wood burning pizzeria, using fresh ingredients Â¿ Dino's will not disappoint.",,http://dinos-pizza.ca/,Hot Eats,820 The Queensway,304110.8,4831486.617,-79.5083459687,43.6253239692,116468.0,429,POINT (-79.5083459686908 43.6253239692267)
429,European Patisserie,"With custom cakes and desserts for all occasions, European Patisserie has your dessert needs covered.",,http://www.europeanpatisserie.com/,Hot Eats,5072 Dundas St W,302193.299,4833747.133,-79.5321164335,43.6456673615,116469.0,430,POINT (-79.5321164335259 43.6456673614605)
430,Everest Hakka House,Serving an Indian variation of Chinese Hakka Cuisine.,,http://www.everesthakkahouse.com/,Hot Eats,"-79.4882275023,43.6163841658",305734.254,4830494.397,-79.4882275023,43.6163841658,116670.0,431,POINT (-79.48822750230001 43.6163841658)
431,Falafel Royal,Hot and fresh Lebanese food is Falafel Royal's specialty.,https://www.facebook.com/pages/Falafel-royal/285889428114320,,Hot Eats,3308 Lake Shore Blvd W,302846.115,4828334.528,-79.5240071657,43.596949704,116471.0,432,POINT (-79.5240071656975 43.5969497039666)
432,Fat Bastard Burrito Co.,"Fat Bastard Burrito offers a broad menu of burritos and quesadillas, aiming to bring you the freshest flavours.",,http://www.fatbastardburrito.ca/,Hot Eats,1180 The Queensway,303015.226,4831147.326,-79.5219206513,43.6222682923,116472.0,433,POINT (-79.52192065131629 43.6222682923487)
433,Goodlake,"A warm neighbourhood bistro serving a seasonal menu, Ontario craft beer and weekend brunch.",,http://www.goodlake.ca/,Hot Eats,2976 Lake Shore Blvd W,304230.14,4828742.209,-79.5068647871,43.6006212357,116621.0,434,POINT (-79.50686478707961 43.6006212356824)
434,Havana Style CafÃ© and Gallery,"Try out a range of sandwiches, including the Havana-style, Cuban coffee and desserts, while enjoying the gallery for Cuban-born artists.",https://www.facebook.com/HavanaStyleCafeGallery?fref=ts,,Hot Eats,270 Brown's Line,301211.019,4828530.531,-79.5442597093,43.5987079145,116622.0,435,POINT (-79.5442597093175 43.5987079145395)
435,Henry VIII Ale House,"A British gastro pub with over 20 draught lines of premium imported beer, over 100 single malt scotches, nightly features and a wonderful Sunday brunch.",,http://www.henryviiialehouse.com/,Hot Eats,2469 Bloor St W,306008.714,4834101.14,-79.484819694,43.648849341,116623.0,436,POINT (-79.484819694 43.648849341)
436,Hi Na Japanese Restaurant,An authentic Japanese restaurant with delicious food and excellent service.,,http://www.hinasushi.com/,Hot Eats,769 The Queensway,304434.039,4831531.646,-79.5043405457,43.6257295545,116624.0,437,POINT (-79.504340545679 43.6257295544763)
437,Hoai Huong Vietnamese Restaurant,Serving Vietnamese fare in the heart of south Etobicoke.,,,Hot Eats,716 The Queensway,304695.179,4831663.447,-79.501104651,43.6269160417,116625.0,438,POINT (-79.5011046509582 43.6269160417428)
438,Izba Restaurant,"An authentic European (German-Austrian), family friendly restaurant, famous for outstanding schnitzel.",,http://www.izba.ca/,Hot Eats,648 The Queensway,304971.007,4831750.979,-79.4976867083,43.6277039639,116626.0,439,POINT (-79.4976867082743 43.6277039638678)
439,Kingsway Fish & Chips,"An icon in the Kingsway community for over 40 years for its warm and inviting family friendly atmosphere, offering ""Kids Eat Free"" every Tuesday.",,http://kingswayfishandchips.com/,Hot Eats,3060 Bloor St W,303711.566,4833909.557,-79.513293763,43.647124684,116627.0,440,POINT (-79.51329376299999 43.647124684)
440,Kitchen on Sixth,Take-out and brunch spot bringing British flair and a downtown vibe with a great patio.,,http://kitchenonsixth.com/,Hot Eats,132 Sixth St,304416.548,4828825.917,-79.5045558964,43.6013748442,116628.0,441,POINT (-79.5045558964368 43.6013748441746)
441,Kothur Indian Cuisine,"Serving south and north Indian food for 10 years, including dosa, sambar, kulchas, chicken curry, tikka, kabab, Indian pulao and biryani.",,http://www.kothur.com/,Hot Eats,2403 Lake Shore Blvd W,305701.123,4830277.441,-79.4886415619,43.6144398954,116629.0,442,POINT (-79.4886415618579 43.6144398953858)
442,Lenny's Lasagna Shop,"Italian take-out and delivery including pizza, lasagna and other classic Italian dishes.",,http://lasagnashop.com/,Hot Eats,4748 Dundas St W,302712.53,4834536.479,-79.5256831342,43.6527737656,116630.0,443,POINT (-79.5256831341687 43.6527737655977)
443,Liba's Bar and Grill Inc.,The family-owned Liba's features a delicious Eastern European (Slovak) Canadian menu including delicious homemade pancakes.,,http://libasbarandgrill.com/,Hot Eats,"-79.54580441,43.6021852017",301086.24,4828917.829,-79.54580441,43.6021852017,116673.0,444,POINT (-79.54580441 43.6021852017)
444,Mai Bistro,A family-owned and operated neighbourhood bistro serving Asian cuisine with a Latin flavour.,,http://www.maibistro.com/,Hot Eats,4906 Dundas St W,302467.593,4834132.946,-79.5287178838,43.6491408391,116632.0,445,POINT (-79.52871788382269 43.6491408390794)
445,Maurya East Indian Roti,Check out the delicious East Indian Roti!,,http://www.mauryaeastindianroti.ca/,Hot Eats,"-79.4891760955,43.6133847514",305657.727,4830161.167,-79.4891760955,43.6133847514,116674.0,446,POINT (-79.4891760955 43.6133847514)
446,Mitzie's Jerk,Home-style Caribbean cuisine with traditional roti and jerk chicken.,,http://mitziesjerk.ca/,Hot Eats,3337 Bloor St W,303050.136,4833660.182,-79.521491695,43.644878408,116634.0,447,POINT (-79.52149169499999 43.644878408)
447,More Than Pies,"Enjoy home-style baked goods, light lunches and dinners, great coffee and great service.",,http://www.morethanpies.com/,Hot Eats,3469 Lake Shore Blvd W,302375.924,4828128.827,-79.5298298353,43.5950965673,116635.0,448,POINT (-79.52982983527799 43.5950965672537)
448,New Flower Drum Restaurant,"Relaxing, comfortable environment for friends and family to enjoy a hot plate of Chinese food.",,http://newflowerdrum.ca/,Hot Eats,2428 Lake Shore Blvd W,305648.655,4830280.818,-79.4892915846,43.6144703482,116636.0,449,POINT (-79.4892915846382 43.6144703482289)
449,Nimman Thai Cuisine,"Authentic Thai cuisine, Nimman Thai Cuisine has over 90 flavourful menu items that are made fresh in-house.",,http://nimman.ca/,Hot Eats,"-79.4891760955,43.6133847514",305657.727,4830161.167,-79.4891760955,43.6133847514,116675.0,450,POINT (-79.4891760955 43.6133847514)
450,Old Mill Toronto,Enjoy an elegant experience with fine dining in the historical setting of the Old Mill Toronto Dining Room.,,http://www.oldmilltoronto.com/,Hot Eats,21 Old Mill Rd,305313.119,4834333.489,-79.4934452357,43.6509501455,116638.0,451,POINT (-79.49344523570841 43.6509501455337)
451,Oregano By Cirillos,"A popular neighbourhood restaurant with fantastic food, excellent service and great value for your dollar.",,http://www.cirillosacademy.com/,Hot Eats,4900 Dundas St W,302473.131,4834145.021,-79.5286492808,43.6492495401,116639.0,452,POINT (-79.52864928083901 43.6492495401351)
452,Orwell's Pub,A friendly neighbourhood pub with a great menu including daily specials.,,,Hot Eats,3373 Bloor St W,302937.477,4833626.892,-79.522891331,43.6445870239,116640.0,453,POINT (-79.5228913309695 43.644587023873)
453,Ottimo Ristorante & Pizzeria,Serving authentic Italian cuisine with an extensive wine list and cozy atmosphere.,,http://ottimoristorante.com/,Hot Eats,3075 Bloor St W,303668.829,4833849.006,-79.5138266225,43.6465881368,116641.0,454,POINT (-79.51382662249991 43.6465881368339)
454,Pazzia Osteria,Come in and enjoy casual southern Italian cuisine.,https://www.facebook.com/pages/Pazzia-Osteria/185142375028,,Hot Eats,848 The Queensway,304019.017,4831457.812,-79.5094832693,43.6250645877,116642.0,455,POINT (-79.5094832693367 43.6250645876615)
455,Pearl Sushi,Delicious authentic Japanese sushi in your neighbourhood.,,http://www.pearlsushi.ca/,Hot Eats,"-79.488284522,43.615096682",305729.669,4830351.363,-79.488284522,43.615096682,116678.0,456,POINT (-79.488284522 43.615096682)
456,Abbirami Catering and Take-out,Sri Lankan restaurant that serves lamprais.,,,Business,2619 Eglinton Avenue East,324736.687,4843732.278,-79.2523120525,43.7352855372,37635.0,457,POINT (-79.25231205245861 43.7352855371987)
457,Cliffside Hearth Bread Company,"Cliffside Hearth Bread Company is an artisan bakery with a focus on unique handcrafted, naturally leavened sourdough breads.",https://www.facebook.com/CliffsideHearthBreadCompany,http://www.cliffsidehearth.com,Business,3047 Kingston Road,326499.446,4842704.764,-79.230466777,43.72597859,37636.0,458,POINT (-79.230466777 43.72597859)
458,D'Ornellas Bike Shop,"D'Ornellas Bike Shop is owned by foru time Olympian and two time Canadian Road Racing Champion, Eon D'Ornellas who is also an active member of the D'Ornellas Cycling Club. D'Ornellas is famously known for staying in touch with customer needs. It also hol",https://www.facebook.com/pages/DOrnellas-Bike-Shop/145598222147382,http://www.dornellas.com/Home.asp,Business,1894 Lawrence Avenue East,320781.93,4844730.615,-79.3013774778,43.7443672042,37637.0,459,POINT (-79.3013774777877 43.744367204184)
459,Fratelli Village Pizzaria,Fratelli is a family owned restaurant featuring authentic Italian food with a warm and inviting casual family dining experience.,,http://www.fratellis.ca,Business,384 Old Kingston Road,331345.379,4849164.625,-79.1700046131,43.7839769156,37638.0,460,POINT (-79.1700046131218 43.7839769156031)
460,Gold Picture Frames,Gold Picture Frames is a family business that has been workingÃ¿together to ensure first-rate service for over 30 years. It provides quality custom framing at competitive prices. Ã¿All work is done on theÃ¿premises to ensure valuables are well protected.,,http://www.gallerywall.ca/,Business,3083 Kingston Road,326532.374,4842801.839,-79.230054185,43.726851471,37639.0,461,POINT (-79.230054185 43.726851471)
461,Gourmet Schnitzel House,Gourmet Schnitzel House features schnitzel sandwished and dinners around classic pork and chicken schnitzel.,,http://www.gourmetschnitzelhouse.com,Business,2286 Kingston Road,324745.963,4840423.469,-79.252315802,43.705493201,37640.0,462,POINT (-79.252315802 43.705493201)
462,Lochchana Cake House,Lochchana Cake House is a unique cake house that caters beautiful cakes for all occasions. Cakes are handmade and hand-decorated with custom-made designs. It also sells a rich plethora of cake making and decorating accessories. It also offers classes on,https://www.facebook.com/LochchanaCakes,http://www.lochchana.com/,Business,2631-2633 Eglinton Avenue E,324780.088,4843776.63,-79.2517716678,43.7356835942,38802.0,463,POINT (-79.2517716678275 43.7356835942234)
463,Montmartre Bakery,"Montmartre Bakery is an artisan bakery that sells preservative-free bread and baked goods made with natural ingredients, whole grains and in-season fresh fruits. A family-run business, Montmartre has been baking delicious products in Scarborough for over",https://www.facebook.com/pages/Montmartre-Bakery/127422053961886,http://www.montmartrebakery.com/,Business,105 Midwest Road,323476.3,4845868.132,-79.2678848164,43.7545435835,37642.0,464,POINT (-79.2678848164305 43.7545435835205)
464,Patty Time,"Patty Time is a small Carribbean joint that sells spicy patties of oxtail, beer, jerk chicken, and more.",,,Business,2919-2933 Lawrence Avenue East,324768.11,4845784.434,-79.2518461407,43.7537569052,38805.0,465,POINT (-79.2518461406862 43.753756905158)
465,Seraphia Inspired Cuisine,"Sepaphia products and fiid are made on the premises using only fresh and natural ingredients. They offer complete meals to take home, as well as a variety of salads and side dishes to accompany any meal. It also has a display wall of artworks.",,http://www.seraphiainspiredcuisine.com,Business,2979 Kingston Road,326471.76,4842597.094,-79.230814726,43.725010191,37644.0,466,POINT (-79.23081472600001 43.725010191)
466,Simply Frosted Cupcakery,"Simply Frosted Cupcakery offers cupcakes, fondant cakes, buttercream cakes, shortbread cookies and many more. SFC specializes in cupcakes  in 25 in store flavours and custom fondant cakes.",https://www.facebook.com/SimplyFrostedCupcakery,http://www.simplyfrosted.ca,Business,5550 Lawrence Avenue East,333979.258,4848720.065,-79.137302136,43.77986854,37645.0,467,POINT (-79.137302136 43.77986854)
467,Shawarma Empire,Shawarma Empire serves falafel and shawarma made from freshly-prepared ingredients.,,,Business,1823 Lawrence Avenue East,320610.519,4844604.193,-79.3035094556,43.7432329109,37646.0,468,POINT (-79.3035094555962 43.743232910871)
468,Sultan of Samosas,"Their crispy, light-textured pastry is a result of years of R&D and patented apparatus and process for making improved Samosa pastry. They only use locally produced ingredients and Samosas handcrafted to perfection.",https://www.facebook.com/pages/Sultan-of-Samosas/163702907120997,http://www.sultanofsamosas.com/,Business,1677 O'Connor Drive,320563.102,4841886.75,-79.3041775718,43.7187732011,37647.0,469,POINT (-79.3041775718368 43.7187732011233)
469,T-Bones Sizzling Steak&Burgers,T-Bones is a 24-hour open steakhouse that offers old-fashioned burger and steak upto 16oz.,,,Business,2540 Eglinton Avenue East,324426.155,4843745.445,-79.25616633,43.7354123164,37648.0,470,POINT (-79.2561663300115 43.7354123164262)
470,Vi Pei Bistro,"Vi Pei Bistro, is the ""go to"" place to enjoy fresh healthy foods. Vi Pei features typical European bistro menu.",https://www.facebook.com/ViPeiBistro,http://www.vipeibistro.com,Business,3101 Kingston Road,326561.419,4842833.684,-79.2296955896,43.7271458948,37649.0,471,POINT (-79.22969558957909 43.7271458947681)
471,Vi Pei Bistro,"Vi Pei Bistro, is the ""go to"" place to enjoy fresh healthy foods. Vi Pei features typical European bistro menu.",https://www.facebook.com/ViPeiBistro,http://www.vipeibistro.com,Business,2258 Kingston Road,324721.052,4840364.464,-79.252627109,43.704962754,37650.0,472,POINT (-79.252627109 43.704962754)
472,Wexford Restaurant,The Wexford Restaurant hasserving Scarborough for over 50 years and is family-operated eatery. It also features photos of neighbourhood history.,,,Business,2072 Lawrence Avenue East,321384.174,4844918.48,-79.293890981,43.746036417,38811.0,473,POINT (-79.293890981 43.746036417)
473,ACR Hot Roti&Doubles,ACR Hot Roti serves tasty and spicy doubles and roti.,,,Business,2680 Lawrence Avenue East,323935.539,4845640.211,-79.2621899981,43.7524805477,37652.0,474,POINT (-79.2621899980693 43.75248054774)
